{"type":"FeatureCollection","name":"huc12_padre_creek_lake_powell","provenance":{"source":"Watershed Boundary Dataset union (National Map WBD service)","layer":6,"field":"huc12","units":[{"code":"140700061004","name":"Padre Creek-Lake Powell","areasqkm":104.56,"loaddate":"2024-08-15","tnmid":"{83A99D42-76AA-4EA1-87C0-04FF41DB3EE4}","tohuc":"140700061007","hutype":"S"}],"version":{"loaddate_max":"2024-08-15","tnmids":["{83A99D42-76AA-4EA1-87C0-04FF41DB3EE4}"]},"outlet":{"drains_to":["140700061007"],"closed_basin_units":[],"no_outlet":false,"member_huc12_count":1},"requests":["https://hydro.nationalmap.gov/arcgis/rest/services/wbd/MapServer/6/query?where=huc12+IN+%28%27140700061004%27%29&outFields=huc12%2Cname%2Careasqkm%2Cloaddate%2Ctnmid%2Ctohuc%2Chutype&returnGeometry=true&outSR=4326&f=geojson"],"date":"2026-09-06T23:53:33Z","geometry_sha256":"68f891fa7c3aebaca3c8741c54271a29a5bf9584809a832111a16479b36a5603","geometry_type":"Polygon","area_km2":104.6,"area_projection":"ESRI:102008"},"features":[{"type":"Feature","properties":{"name":"huc12_padre_creek_lake_powell","area_km2":104.6},"geometry":{"type":"Polygon","coordinates":[[[-111.33767591801546,37.1305089370816],[-111.33790731325288,37.1307223394349],[-111.3381251313531,37.130962788065034],[-111.33835466348458,37.13118294636136],[-111.3385480258495,37.13137619408726],[-111.33870490403744,37.131520086257304],[-111.3389750049855,37.13180528794435],[-111.33944214600125,37.132162517431304],[-111.33989302751034,37.13255997057547],[-111.34021554785015,37.1329196364922],[-111.34047408658218,37.13330430423283],[-111.34066797446154,37.13361251025843],[-111.34095931158289,37.13416387346628],[-111.34112109726725,37.13445849982608],[-111.34128270508518,37.13471497197654],[-111.34149232965169,37.13495780201295],[-111.34168558781202,37.13512403840196],[-111.34184668448853,37.13526571412803],[-111.34231360182379,37.135611285627576],[-111.34260378191505,37.135853712463636],[-111.34319895980823,37.13621258141618],[-111.34374592961169,37.13649275102862],[-111.34397074648628,37.13659575073159],[-111.3444207772908,37.136747562729795],[-111.34491877094496,37.136874583337146],[-111.34548108038021,37.13700141682085],[-111.34594736080989,37.13715553752526],[-111.34620376065322,37.13715478845299],[-111.34647703175592,37.13715398925161],[-111.3469259845821,37.13711435429351],[-111.34718209067634,37.1370482740226],[-111.34748643809796,37.13688059026005],[-111.34766261299653,37.13676544889421],[-111.3479823737118,37.1365570342835],[-111.3481908924522,37.1365067916007],[-111.34862428735595,37.13656848386427],[-111.34888134027453,37.136619553642426],[-111.3492187340205,37.13676087423019],[-111.34974889903994,37.1369122569337],[-111.35002233722926,37.137039921782765],[-111.35032765393309,37.137129163874484],[-111.35068113021761,37.13719125881167],[-111.35116264697282,37.137216842549805],[-111.35145222878613,37.13736926845594],[-111.3515013450726,37.13763956843792],[-111.35158353283627,37.13794808908525],[-111.35172897816561,37.13825625471121],[-111.35201987331587,37.13869042978007],[-111.35224563162485,37.13894669996348],[-111.35268066236077,37.13926767488429],[-111.35311503283492,37.13953682445951],[-111.35362923299513,37.139740235307436],[-111.35411171813422,37.13988076951204],[-111.35444879477491,37.139994731727015],[-111.35478642028626,37.140045543543636],[-111.3552032053404,37.139978963844314],[-111.35541196572763,37.139978339402056],[-111.3557168449519,37.14001574649479],[-111.35599022205578,37.14008025662521],[-111.35619915851277,37.140208097302036],[-111.35633784761285,37.14037447110377],[-111.35666848153632,37.140238253757836],[-111.35686985777188,37.1402376486524],[-111.35713118397625,37.140205292332844],[-111.3574517019713,37.13997895883162],[-111.35793284772231,37.13965523493102],[-111.35849441155588,37.13934696901946],[-111.35887550384884,37.13913631293012],[-111.35905550736717,37.13894196573809],[-111.35929420860279,37.138362033419085],[-111.35953353416751,37.13796020301728],[-111.35971329783564,37.137716223210695],[-111.35995343907067,37.13744285489605],[-111.36025314130396,37.13705653817737],[-111.36093314441446,37.136297160274474],[-111.36117251489497,37.13590899865287],[-111.36131176005222,37.13557043098206],[-111.36139139749878,37.13537858186077],[-111.36159149094011,37.13520004259573],[-111.3618525611246,37.135118044230246],[-111.36225360949162,37.13494108203165],[-111.3626744791854,37.134633222307066],[-111.36325459322956,37.133939635997436],[-111.36353377255188,37.13345664062279],[-111.36381357350838,37.133149211720955],[-111.36411384168031,37.13288915627464],[-111.36431401147841,37.13272850326737],[-111.36441373076318,37.13255009668684],[-111.36445292246239,37.1323247758745],[-111.36455156826038,37.13192319415088],[-111.36461099900295,37.13169781274492],[-111.36480945481551,37.131180959659105],[-111.36526815795577,37.13032769844682],[-111.36578717757747,37.12956895703816],[-111.36630515335683,37.1286815774438],[-111.36666280770572,37.12777916188694],[-111.3667413995133,37.12737544389979],[-111.36672023251026,37.12718407464199],[-111.3666790285848,37.1269902274729],[-111.366618249471,37.12684641836685],[-111.36641542694784,37.126540474573424],[-111.3654449778447,37.125400917800185],[-111.36481553191842,37.12414533955519],[-111.3646929756625,37.12364754036092],[-111.36467043872867,37.12321273748075],[-111.36470998526241,37.12301881281168],[-111.36480866429805,37.122714301122016],[-111.3649454992754,37.12179433729205],[-111.36496429203115,37.12153734072917],[-111.36494303339994,37.12128063123857],[-111.36488113139202,37.1209899540159],[-111.36487950993292,37.12065198645895],[-111.36495787626339,37.12020100613863],[-111.36517643188043,37.11974959192216],[-111.3655357544008,37.119200842056046],[-111.36577558122546,37.11887783295357],[-111.36593557926241,37.11870160065765],[-111.36611591246245,37.11858844086972],[-111.36637662960904,37.11849073595236],[-111.3666175380053,37.11839309107882],[-111.36677742914273,37.11823931037285],[-111.36664274203723,37.1180683751426],[-111.36640014480822,37.11772659736149],[-111.36612983275607,37.11727669200002],[-111.36596681368484,37.11686933351926],[-111.36588597698736,37.11676137221627],[-111.3657784809872,37.11667611393843],[-111.36559086963675,37.11667669057931],[-111.36492052970375,37.11663604419087],[-111.3640347791555,37.116381828089565],[-111.36365780563811,37.11606071597904],[-111.36346886657766,37.11573902227694],[-111.36330637841075,37.11539462794948],[-111.3633843333128,37.11490093744993],[-111.36373083148419,37.114491844094275],[-111.36418461544997,37.11412766214115],[-111.36426389985863,37.113868287056825],[-111.36412849589752,37.11358930807872],[-111.36383227733091,37.11327013977792],[-111.36353624291893,37.113077247700524],[-111.36321437834924,37.1129926428918],[-111.36318708842923,37.11288451631281],[-111.36321252602312,37.11260504443457],[-111.36323735006769,37.112197107068546],[-111.3632075107289,37.11155484885702],[-111.36325396261223,37.11011469568603],[-111.36319714686549,37.10938473979994],[-111.3631139646668,37.10887094381395],[-111.36281540509053,37.10805630472158],[-111.36259808825027,37.10739216584657],[-111.36256701282963,37.106576368158805],[-111.36256393969305,37.10593183347832],[-111.36258795615217,37.10526695596006],[-111.36268294401032,37.10277644113765],[-111.36267949088636,37.10085868667399],[-111.36269824142128,37.100326685879075],[-111.36269529854043,37.09970932873739],[-111.36258311872437,37.098679717633104],[-111.3624736356508,37.09821580548599],[-111.36227813709215,37.09770032805201],[-111.36208387371701,37.09735839099249],[-111.36167441891556,37.09696528352375],[-111.36102889673892,37.09643310921948],[-111.36070511157116,37.09597204509683],[-111.36009868856728,37.09470285842327],[-111.35983923265535,37.094205633074594],[-111.3594720732324,37.09357131851774],[-111.359255758912,37.09319331625971],[-111.35882338269775,37.09249149828082],[-111.35867071671017,37.091890295166436],[-111.35873385659653,37.09164886543515],[-111.35900944086107,37.09101260262803],[-111.35907266608741,37.090789399616334],[-111.35904862806873,37.09020570252931],[-111.35896231344465,37.09000084866467],[-111.35868266340513,37.08986427768076],[-111.35818883344231,37.08971012160076],[-111.3574805360953,37.08952318307102],[-111.35703011093035,37.08945684341494],[-111.3564080680203,37.08937312228193],[-111.3560861558399,37.08925456937629],[-111.35565656979294,37.089048547056294],[-111.355389913884,37.08889386835839],[-111.35430560601358,37.08809927972459],[-111.35346107556047,37.08711252572227],[-111.35315014797938,37.08663350330065],[-111.35292504544054,37.08616756104954],[-111.35292428277087,37.08600313911909],[-111.3529919286067,37.08582263597301],[-111.35321385200774,37.08560335764206],[-111.35333302071672,37.085355009695895],[-111.35340015900442,37.08506629715384],[-111.35341376578603,37.084365493907306],[-111.35339474306157,37.083899106300656],[-111.35330731722148,37.083540969723806],[-111.3530649499612,37.08307524495435],[-111.3528917835205,37.08271972382359],[-111.35252932587977,37.08221147660739],[-111.3520472467792,37.08175997140915],[-111.3512896678557,37.08110180399172],[-111.35010189921735,37.080089031925496],[-111.34979189959596,37.07980143310341],[-111.34961919758426,37.07954061105027],[-111.34944689083132,37.07932250494822],[-111.34898225970848,37.07899247789683],[-111.3486384187537,37.07872084978147],[-111.34827714239756,37.078460580875486],[-111.34798474346753,37.0782406226125],[-111.3477435538986,37.07802271344375],[-111.34755408034053,37.07787217693774],[-111.34729578325532,37.07759809514992],[-111.34708869732782,37.07728098621735],[-111.3468121042552,37.07682868908541],[-111.3466909053537,37.076540531050796],[-111.34663902315448,37.07638976010626],[-111.3464663166512,37.07617164637355],[-111.34632771917927,37.075856527512805],[-111.34594759077861,37.07519739001554],[-111.34580912535903,37.07490928168553],[-111.34570503666875,37.07467527040159],[-111.34570398204659,37.07444314481172],[-111.3457198166501,37.07412538336443],[-111.34571817183482,37.073809868249185],[-111.34571704714406,37.073561877303746],[-111.3456819005586,37.07338404518615],[-111.34556002792063,37.072944965820916],[-111.34554182266307,37.072740073909515],[-111.34560954216077,37.07257494195193],[-111.34576296902142,37.07235384921241],[-111.34593377738447,37.07220242702337],[-111.34598455824917,37.07206469151372],[-111.34600070546641,37.071816655439974],[-111.3460158636385,37.071350328251654],[-111.34598000199404,37.071061925770564],[-111.34585863241266,37.070733081253714],[-111.34573709035472,37.07045860166171],[-111.34566800002789,37.07032138335447],[-111.3454268203404,37.07000656559374],[-111.34534032335834,37.06984002497106],[-111.34530440152675,37.069538281961954],[-111.3453382707079,37.0693870914024],[-111.34552598356798,37.06924912714653],[-111.34578285951844,37.06912429536922],[-111.345902030024,37.06901590261732],[-111.34588446346864,37.06890555076228],[-111.3457986141719,37.068835910226944],[-111.34567789227579,37.068741555865415],[-111.34543700184584,37.068534949529855],[-111.34535119117662,37.068426985287054],[-111.34529854720604,37.06824683954133],[-111.34512540861311,37.067834919561086],[-111.34495219007013,37.06745237210134],[-111.34479640603021,37.067150810259776],[-111.34462318299566,37.066765900374],[-111.34450194995819,37.06646440461582],[-111.34438093970287,37.066257278847935],[-111.34429447955173,37.066052416894415],[-111.3442250586449,37.065888185734345],[-111.34413873054608,37.06571050263859],[-111.3440004699424,37.065462910992274],[-111.34394815206025,37.06535265647161],[-111.34379356547457,37.0651751692444],[-111.34367278159473,37.065064942261216],[-111.34356994874922,37.065011217175524],[-111.34339806959433,37.06496900693679],[-111.3429346197561,37.06487563553438],[-111.34252267212975,37.064712399633535],[-111.34217889495534,37.064575805313105],[-111.34195484703865,37.06431511941229],[-111.34152519810961,37.06405485769085],[-111.341318864072,37.06389085445656],[-111.34112899525523,37.06354667245421],[-111.3410084063098,37.063479322278994],[-111.34076785723965,37.06334259599223],[-111.34039050373488,37.063233272418444],[-111.33980591967386,37.06294660319582],[-111.33954834483413,37.062769238652194],[-111.33941071754269,37.0626592253739],[-111.3392384206712,37.06252213130576],[-111.33894685268281,37.062468942763495],[-111.3387410064304,37.06241314633039],[-111.3383807667301,37.06236032114841],[-111.33817431680983,37.0622638376062],[-111.33776209699394,37.06203288477199],[-111.33716058148644,37.0616763667726],[-111.33676584917418,37.06153990031854],[-111.33619883616011,37.061266671332646],[-111.33600975336923,37.061143127499335],[-111.33584914447789,37.06097695523156],[-111.33566488114849,37.06070247187547],[-111.3355267858348,37.06048424492376],[-111.33545706489063,37.06024556396498],[-111.33529597450233,37.05997101201161],[-111.33506597884012,37.05964263483417],[-111.33485934207027,37.05940434120261],[-111.3347210410424,37.059186107649474],[-111.33451424796569,37.05891185724891],[-111.33435271919949,37.05858328264834],[-111.33426069757843,37.05839868538756],[-111.33403039648901,37.05799822213619],[-111.33389214666512,37.0577416665262],[-111.33382223527813,37.05741064371598],[-111.33366010014912,37.05698972816164],[-111.33365898623818,37.05673498359229],[-111.33340587243215,37.05636834610953],[-111.33324483863768,37.05615017623045],[-111.33308413272829,37.05591174904048],[-111.33299184251096,37.055711283141804],[-111.33278479970258,37.05547315495497],[-111.3325326048731,37.05521692058355],[-111.33231850939143,37.05505072816712],[-111.33213355166431,37.05456234536448],[-111.33219420142072,37.05446291041456],[-111.33234510581205,37.05419440048505],[-111.33243556526286,37.05397552966311],[-111.33246524649815,37.053729816043],[-111.33255442045977,37.05326531120285],[-111.33255282774675,37.05290016393619],[-111.33252143522085,37.052656813417855],[-111.33242895725562,37.052461073534054],[-111.33236744421822,37.05226524711335],[-111.33233583879156,37.052069337739866],[-111.33230348776326,37.05165463924499],[-111.33228376255624,37.051332421170734],[-111.33207753990973,37.05094083082613],[-111.33199425081152,37.05067736793705],[-111.33158287181875,37.0500881555305],[-111.33002029011126,37.04828969698439],[-111.32792586173812,37.046557851260914],[-111.32673445132961,37.04538024914129],[-111.32566690512407,37.04449756059057],[-111.3247634433917,37.04371350429839],[-111.32385880935787,37.042600253318746],[-111.32328236942321,37.04174793605585],[-111.32299277503348,37.04099612818707],[-111.3224994526188,37.040472273828534],[-111.32208915968918,37.04020969313964],[-111.32155631858852,37.03994963627345],[-111.32098296436685,37.03982052353846],[-111.31946835359385,37.03966018082038],[-111.3185275246406,37.03963114020495],[-111.31750414230937,37.03950102161918],[-111.3167668311753,37.0393405885945],[-111.31635705298036,37.03914348924824],[-111.3157003692363,37.03862004158807],[-111.31541281222563,37.03839104178234],[-111.3149615920517,37.03800007520932],[-111.31459192363418,37.03767202890124],[-111.3143035069358,37.03718152574292],[-111.31409734806968,37.036722380192266],[-111.3140960392243,37.036404491579866],[-111.31409452646135,37.03603731415935],[-111.31409279989941,37.035617972400885],[-111.31392725027399,37.035251227887315],[-111.31369598169904,37.0347266411745],[-111.31346385702963,37.03399255230575],[-111.31339567310292,37.033337036776324],[-111.31332575991932,37.03220815886463],[-111.31335560195306,37.031527397190956],[-111.31325532571283,37.03110628861254],[-111.31309117476434,37.030872232576165],[-111.31292692410284,37.03076681364581],[-111.31230383285883,37.030452933292665],[-111.31131962426052,37.02987849199029],[-111.31102366081544,37.02948727003063],[-111.3106610315965,37.02885717387195],[-111.31052921011675,37.02859618526569],[-111.31049454592655,37.02809808611994],[-111.3105249350343,37.02754596889844],[-111.31055447074253,37.02678417577262],[-111.31055094844831,37.02591864763172],[-111.31041668534763,37.02521147577919],[-111.31028357837872,37.024528946621416],[-111.30995202188545,37.02345494027274],[-111.30945348115728,37.02164648748832],[-111.3092188843242,37.020177694057296],[-111.30931507143325,37.01975606854311],[-111.30951053944918,37.019518871873544],[-111.30986875165186,37.01912593972053],[-111.31022662159644,37.01859980641335],[-111.31042017170923,37.017891604590076],[-111.31045162801554,37.01760317681731],[-111.31022000819932,37.016972735344034],[-111.31012019998137,37.016605642582896],[-111.30946184447258,37.01555713183257],[-111.30900162767105,37.01503549414194],[-111.30778669128358,37.01398858998535],[-111.30617917674388,37.012890691134345],[-111.30499872757849,37.01223786633037],[-111.30414605210069,37.011793859568485],[-111.30378586629931,37.01168893349965],[-111.30306561057924,37.01155993985649],[-111.30247576957716,37.01135193617738],[-111.30195213351321,37.01122260912549],[-111.30146091046134,37.01114484507904],[-111.30113283763474,37.01106700850345],[-111.30064224070863,37.01104107228574],[-111.3001837639438,37.01093857762081],[-111.29998726556026,37.010808405574664],[-111.29979013655935,37.01062421650791],[-111.29952713859025,37.010284538108586],[-111.29909042620815,37.009717558092845],[-111.29877424977084,37.00918201198982],[-111.2984378163239,37.00884707093464],[-111.298269803518,37.00867867878306],[-111.29789148342599,37.008343676687375],[-111.29776507339753,37.00820876928039],[-111.29757564655188,37.007891523164936],[-111.29740697258592,37.0076056255676],[-111.29730189754544,37.00748889751871],[-111.29677713768909,37.00717012831544],[-111.29591690827806,37.00670346057708],[-111.29513944873901,37.00608346253068],[-111.29465687915827,37.005782641820176],[-111.2941951028814,37.005414238882864],[-111.2930614262979,37.00466208355949],[-111.29201226950455,37.004042730295744],[-111.29161380648891,37.00387691369192],[-111.29020897074196,37.00337558706206],[-111.2897482472906,37.003275249312914],[-111.28922463278622,37.00324276276451],[-111.28893083787423,37.0031442125929],[-111.28865856569814,37.003061475173034],[-111.28836487499072,37.002877502641006],[-111.28805000021228,37.00265964178191],[-111.28758778286262,37.00227315443184],[-111.28735696973352,37.00207315455802],[-111.28694142255782,37.001781085442666],[-111.28689434724367,37.001857843935134],[-111.28679963606662,37.00197067721441],[-111.28669254341004,37.00209502255274],[-111.28650322615886,37.002296032475016],[-111.2862658858709,37.00243183062953],[-111.28609992212215,37.002517823590864],[-111.28588593623496,37.00265137014346],[-111.2856841539609,37.00272850080568],[-111.28554172966585,37.00280548719221],[-111.28512612589628,37.00294846488032],[-111.28461471680167,37.003026504901705],[-111.28407983742362,37.0031334695748],[-111.2837710172902,37.00323786295045],[-111.28364055226655,37.003362087846085],[-111.28353433277239,37.00349537393661],[-111.28345130328732,37.00358335789444],[-111.28337994651102,37.00369629837376],[-111.28335697030101,37.00380220682294],[-111.28327432439657,37.003935429011584],[-111.28316750842107,37.00407986015489],[-111.28302500327764,37.0041929713521],[-111.28282367644945,37.0043376265478],[-111.28261020260194,37.00450036959106],[-111.28244412836045,37.004672116870346],[-111.28226626283251,37.004843726024504],[-111.2821716253173,37.00497934458771],[-111.28206518034604,37.00516884660267],[-111.28197085185131,37.005389885419035],[-111.28186437813395,37.00557043860617],[-111.28175808048637,37.005685660248645],[-111.28161568134416,37.00577158783548],[-111.28148496119898,37.00582828316007],[-111.28129512651819,37.0059526501664],[-111.28111691603718,37.00608829688076],[-111.28093917986664,37.00623964294472],[-111.28074948622134,37.00640232596163],[-111.28055951499664,37.006547116839414],[-111.28048874751518,37.00665094096217],[-111.28034677058115,37.00691041671745],[-111.28029996835485,37.007120201559545],[-111.28026464210632,37.007244199164866],[-111.28025313199258,37.007377258937744],[-111.28023057709241,37.00759812634103],[-111.28019562993292,37.00788452826507],[-111.28020828989024,37.008064630769816],[-111.28028038687829,37.00826501803119],[-111.28030476266352,37.008368617429866],[-111.28025712859727,37.00846563503254],[-111.28010303428839,37.00858096419249],[-111.27985404195289,37.00876185269056],[-111.27975914212963,37.00882976861953],[-111.2796286205121,37.008942851946195],[-111.27951081005585,37.009249368018786],[-111.27945179253831,37.009344215983624],[-111.27938081664772,37.009506618333575],[-111.27926268369627,37.009669301531936],[-111.27916837586281,37.00989928818703],[-111.27912135714251,37.01010924267831],[-111.27902693432469,37.01036607188019],[-111.2790395592477,37.01053739774773],[-111.27907622218939,37.01077618837307],[-111.27908937442346,37.01109168294326],[-111.27914953010647,37.011310162355706],[-111.27922128663303,37.01141584643607],[-111.27926966719932,37.01157796747514],[-111.27932945008145,37.011692795529804],[-111.27943715988067,37.011902217840834],[-111.27952094305226,37.012016818734686],[-111.27962882981956,37.01215870958598],[-111.27972432432753,37.012253021675626],[-111.27983196046488,37.01250076537734],[-111.27993985441871,37.01275965233942],[-111.28006009571612,37.01299825235294],[-111.28015587229508,37.013169207180226],[-111.28026397106478,37.01342589621064],[-111.28034841809139,37.01372096335976],[-111.28045694356088,37.01426599379173],[-111.28054244880288,37.01473241138896],[-111.28054325099843,37.014950864555026],[-111.28053170854533,37.01507497347561],[-111.28044935908491,37.015352374033576],[-111.28037830773584,37.01549671103842],[-111.28029564027183,37.01562993855309],[-111.28012960825113,37.01576318878709],[-111.27993964780619,37.01591692778689],[-111.27977396253519,37.01608867150603],[-111.27956083813235,37.016298680626285],[-111.2793946623812,37.01656732458751],[-111.27925297021312,37.01685380891113],[-111.27913520736757,37.017119978497725],[-111.27896952299488,37.01735029836856],[-111.27887474803748,37.01745654355514],[-111.27864957543004,37.01765526496365],[-111.27850697955677,37.01780888896038],[-111.27835283584055,37.01791526835019],[-111.27813938984082,37.018039518749525],[-111.27785438853715,37.01822960002143],[-111.27774747464531,37.018297375515154],[-111.27764056165178,37.01836532452369],[-111.27751017388321,37.01840395074835],[-111.27731981728127,37.01845166454111],[-111.27712994397291,37.01857602380275],[-111.27685701512833,37.018786335183],[-111.27650113135887,37.01911163639985],[-111.27631136225509,37.01926536647325],[-111.27613341767542,37.01936943645106],[-111.27586038372796,37.019552565756264],[-111.27571809058695,37.01967698131258],[-111.2754805212286,37.0198284573934],[-111.27530250837695,37.01997304266719],[-111.27499472310272,37.020327601264924],[-111.27480497286359,37.02054683662569],[-111.2746631270836,37.02073860357244],[-111.27458113335605,37.02100468495893],[-111.27448668269042,37.0212618481455],[-111.2744153753215,37.02139723515635],[-111.27430931303252,37.02158672994669],[-111.2741910399439,37.021834997630606],[-111.27403736065668,37.02207423401008],[-111.27393098844892,37.022295296100594],[-111.27383629703483,37.0224283768587],[-111.27367044916878,37.02262037215054],[-111.27344490016723,37.0228395112439],[-111.27330287292754,37.02298181508162],[-111.27313640612225,37.02300245923942],[-111.27290735728437,37.02300973819711],[-111.27265434678459,37.023028382768246],[-111.27225521542239,37.02328168627025],[-111.2720662386327,37.02348504064816],[-111.27179367899572,37.02380794350632],[-111.27160547835044,37.02422974878447],[-111.27143953166967,37.02498964904285],[-111.27131540066709,37.025548725047955],[-111.2712530117723,37.025767490647894],[-111.27112725302241,37.02598639833689],[-111.27089552720498,37.02607268953156],[-111.27070665641651,37.02619028335913],[-111.27051754757447,37.026359702433695],[-111.27039176367175,37.02651327727459],[-111.27012037094632,37.02717178994669],[-111.26980698647291,37.02798384726275],[-111.2696186133511,37.02830435504913],[-111.26949287885574,37.02847363171425],[-111.26934563150594,37.02857542788298],[-111.26909350494842,37.02872928725773],[-111.26888315005158,37.02884692430472],[-111.26862432924854,37.02907508226989],[-111.26787705310304,37.02955706214036],[-111.26716546253219,37.02964847687734],[-111.26600505657741,37.029772972714525],[-111.26529367351739,37.029864547832034],[-111.26488191723219,37.02995578578158],[-111.2624142505366,37.03116242001607],[-111.26117966350229,37.03158432644705],[-111.26046857239474,37.03170760788324],[-111.26001922251321,37.03170859321601],[-111.25938143662779,37.03146874534722],[-111.25866819315681,37.03101972130269],[-111.25810498630459,37.03054082436857],[-111.25607605859041,37.02868381385975],[-111.25543812538129,37.0282638125871],[-111.25513738559386,37.02799401088697],[-111.25479989213486,37.02781443467929],[-111.2544626879334,37.02784672784813],[-111.25412568944614,37.02781588048182],[-111.25386314961783,37.027696917234074],[-111.2537502250984,37.027487656785986],[-111.25382385910395,37.027217046947456],[-111.254155509022,37.026844427661274],[-111.25446469387141,37.02642914313179],[-111.25458764808101,37.026048021390544],[-111.25458626647209,37.02563357233012],[-111.25437652961618,37.024804439358576],[-111.25318988566858,37.02271563518937],[-111.2516721316904,37.0206273488076],[-111.25113219030574,37.020015676715474],[-111.25088331295458,37.0198156453458],[-111.25038596339247,37.01966796416096],[-111.24995130635573,37.01963511810851],[-111.24970287456897,37.0195703067339],[-111.24926752582945,37.01938856031698],[-111.24868753844771,37.01914195008364],[-111.24682290361584,37.01844709349179],[-111.24599402540825,37.01811758702993],[-111.24539263476655,37.017753844378056],[-111.24433538954239,37.01710927546988],[-111.24381711282741,37.01686014740312],[-111.24356874482102,37.016745862955574],[-111.24329964190126,37.01673037497641],[-111.24284410981394,37.016747347701205],[-111.24247195216478,37.01676363830013],[-111.24216163723472,37.016831974570195],[-111.24189242741541,37.01678305474999],[-111.24147816483057,37.016601232090956],[-111.24102237402846,37.01640160201177],[-111.24067016526679,37.01626928822118],[-111.24040038861057,37.01603770840775],[-111.24013112848561,37.01590539183174],[-111.23973729359032,37.01579121856076],[-111.23926083884174,37.01551058825797],[-111.23841107749874,37.015079442873486],[-111.23751980680305,37.01463283963143],[-111.23698074217411,37.014320421878175],[-111.23646271968236,37.01407159956021],[-111.23592339903355,37.013673580857116],[-111.2355917491155,37.01344228292246],[-111.23507348677357,37.01311208336288],[-111.23484509999406,37.012914170669944],[-111.23457519128547,37.01263294585454],[-111.23438873966005,37.01251614949152],[-111.23422301486318,37.012433080832935],[-111.23389199556244,37.01233463510887],[-111.233518657527,37.012236105331866],[-111.23314585488744,37.012036280153474],[-111.23277265519255,37.01177348494514],[-111.23256501859777,37.01154193088382],[-111.23221182168932,37.01114353094638],[-111.23192141162933,37.01082857243269],[-111.23163028561206,37.01034682164573],[-111.23133906437336,37.00990119772767],[-111.23106903618884,37.00950280138451],[-111.23090251458629,37.009221360939165],[-111.23077757330331,37.00890624883962],[-111.23063229865389,37.00875780041533],[-111.23027957695422,37.008508292036105],[-111.22982360918398,37.00829274784949],[-111.22932695671454,37.00812927979357],[-111.22887103655502,37.00792959876579],[-111.22856020239874,37.00781523202229],[-111.22827031875148,37.00766705908324],[-111.2281249758301,37.007565877649796],[-111.2276899100599,37.00736851507439],[-111.2274205592051,37.00718637146961],[-111.22719241856396,37.006988611925806],[-111.22701593554325,37.00681979528292],[-111.22689150989325,37.00667146760502],[-111.22685977780415,37.006547443240365],[-111.226781945073,37.006423679794466],[-111.22657976664189,37.0062483202228],[-111.22645562845277,37.0061246445263],[-111.22629962971547,37.00597621075598],[-111.22603561305684,37.00588875755246],[-111.22558535318194,37.005815166021314],[-111.2252440652392,37.00579116635026],[-111.2249645993543,37.00581634322811],[-111.2247629437427,37.00581672558718],[-111.2245299566906,37.00582847685039],[-111.22428195879012,37.00581763593169],[-111.22398715956163,37.0058543194364],[-111.22377003675747,37.00589305101727],[-111.2233514766323,37.00600661145963],[-111.22304106737914,37.006031844221],[-111.22290150960818,37.006032106778264],[-111.22259055148437,37.0058704516792],[-111.2222486922131,37.005722360316575],[-111.22154957205503,37.00541270082999],[-111.22109920168735,37.00522665574614],[-111.2205553714958,37.00496616560773],[-111.22010490411006,37.00481827191546],[-111.21991868424998,37.00476914995166],[-111.21967022731039,37.00474259965831],[-111.21929800138923,37.00471830193514],[-111.21909585439917,37.00469385642345],[-111.21886308653603,37.00463351523105],[-111.21845903599933,37.00444737354558],[-111.21786812959532,37.00398876115192],[-111.21755708253829,37.00371415496616],[-111.2174480090965,37.00362639857305],[-111.21737005688941,37.00352727570156],[-111.21721488909375,37.00344213399393],[-111.21702853179143,37.00334101508943],[-111.21677983679828,37.00323123134215],[-111.21653124960297,37.00315706403839],[-111.2163912741154,37.00308303727214],[-111.21622031663198,37.002995393499425],[-111.21603403658477,37.00292145194624],[-111.21575425808616,37.00275955707731],[-111.21544346974396,37.00264751554529],[-111.21519534607933,37.00258718922892],[-111.2148222146564,37.00246158923988],[-111.2144344272196,37.002363191580194],[-111.21407748074313,37.0023028937344],[-111.2135808740878,37.002278971869075],[-111.21277382943316,37.00226708303279],[-111.21148561297639,37.002181431273016],[-111.21067854406725,37.00208376644053],[-111.2102096046243,37.00194025624419],[-111.21031905535853,37.0022444460291],[-111.21034281220453,37.00253950206337],[-111.2103204764933,37.002760529154905],[-111.20983961101665,37.003870027465936],[-111.2098401185648,37.00405488572281],[-111.21002537722752,37.004370080346014],[-111.2103021553531,37.004515960496384],[-111.21062566922963,37.00473856725552],[-111.2108791917691,37.00492297503785],[-111.21115624028755,37.005086916284895],[-111.21141050034389,37.005309643326115],[-111.21171136769212,37.00578906373331],[-111.21212753560367,37.00639911431371],[-111.21252044703085,37.00689643104076],[-111.21284448642183,37.00730169611425],[-111.21300670778909,37.00765288775096],[-111.21310034727598,37.008243087967294],[-111.21312494853836,37.0087613225735],[-111.21312603010996,37.00914892970396],[-111.21308122304191,37.00953662452493],[-111.2130590463325,37.00988831657695],[-111.21301376944555,37.0101834986042],[-111.21294539687264,37.01049914268674],[-111.21294684226193,37.010943141948616],[-111.21294818165002,37.011423264946266],[-111.21294921381428,37.011792811571],[-111.21290563204826,37.0126965831768],[-111.2128381721637,37.01334345833636],[-111.21274706323095,37.01365914524462],[-111.21251751942134,37.01401120842863],[-111.21267241053589,37.01421875221817],[-111.21291112704287,37.014515954528875],[-111.21300391223193,37.01464746800947],[-111.21319970992957,37.01487755651817],[-111.21336430554415,37.01509132253309],[-111.21353926412382,37.01524734098168],[-111.21379621643106,37.015362006407585],[-111.2140839306469,37.015484898149275],[-111.21423832678971,37.01566576304337],[-111.21444437426473,37.01594529820995],[-111.21457861400923,37.01621651843223],[-111.21463062915912,37.016446861842326],[-111.21468243410324,37.01667721029238],[-111.21470378346429,37.01685831550228],[-111.21467329913511,37.01702297050771],[-111.2146019234942,37.01724526592636],[-111.21453089280638,37.017517025909974],[-111.21453138508316,37.01769141843846],[-111.2145833616055,37.017905553815204],[-111.21465572718985,37.018110882125235],[-111.21471778460632,37.018242446764624],[-111.21484112778639,37.018382179253834],[-111.21498543315363,37.018563060203945],[-111.21510931083132,37.01881775284262],[-111.21518166024599,37.019015310185466],[-111.21528509675937,37.01926193732647],[-111.21534703739484,37.019426423591995],[-111.21534750272217,37.01959102354283],[-111.21529680360415,37.01975571781273],[-111.21523558431586,37.019920426070485],[-111.2151338420251,37.02020051650502],[-111.21507277994196,37.02042279402081],[-111.21502182660072,37.020570941373975],[-111.21495075638703,37.020752213742085],[-111.21492029271913,37.02092513928428],[-111.21493132672576,37.02118021059019],[-111.21494205889847,37.02140235757382],[-111.21495321238102,37.02162450534237],[-111.21498436775168,37.02177267186894],[-111.21501548090157,37.021904296151945],[-111.21501592107606,37.02206062192561],[-111.21499568113441,37.02220061276326],[-111.21498603861812,37.022365227503265],[-111.2149864311819,37.02250501193917],[-111.21499696482692,37.022656424287526],[-111.21503834661883,37.02277165373646],[-111.21509018480059,37.02293615894048],[-111.21515198529889,37.02305118069178],[-111.21527540753071,37.02314161566296],[-111.21537836614037,37.023215370436446],[-111.21546110457132,37.02343738667557],[-111.21547177296361,37.02363488897428],[-111.21547223829093,37.023799486979655],[-111.21546263889381,37.02398064406453],[-111.21542202246656,37.024137050195215],[-111.21538148059946,37.024318267436826],[-111.21521938679295,37.02507571904097],[-111.21513812968394,37.025380248699825],[-111.21506686633245,37.025569795233324],[-111.2149544278016,37.02579216246593],[-111.21492429920528,37.02601033712485],[-111.21494532607115,37.02615007971187],[-111.21496633407239,37.026281722946294],[-111.21501791353937,37.02642985170268],[-111.21504914526685,37.02660266750292],[-111.21505994840645,37.02677534951559],[-111.21503972912603,37.02692344360229],[-111.21498879554773,37.02708003228992],[-111.21492777748207,37.027244743315016],[-111.2148975931902,37.02744231675501],[-111.21490888591164,37.02778804017252],[-111.2149506836235,37.02805115650578],[-111.21501312012899,37.02838851221544],[-111.21506544789261,37.028725889375735],[-111.21510731926632,37.02901382096544],[-111.21512816197755,37.029162003917456],[-111.21523135684413,37.02931814622599],[-111.21540630823729,37.02945777945826],[-111.21563253906012,37.02963834789755],[-111.21592082101122,37.02986826120669],[-111.21613701765233,37.03014760212598],[-111.21625067519702,37.03042729700185],[-111.21634351069173,37.03056707951113],[-111.21649780532493,37.030698477000996],[-111.21674468572121,37.030879000896796],[-111.21705332619159,37.031084229602186],[-111.21747478877343,37.031346818182975],[-111.21795811473565,37.03166685568523],[-111.21836975962975,37.032028217564466],[-111.21859686002178,37.03243111191286],[-111.21867978260732,37.032710695114346],[-111.21871130269402,37.03298226711061],[-111.21869163318257,37.033245661617535],[-111.21865113533293,37.03344325673737],[-111.2186617884539,37.033632481964254],[-111.21868282699785,37.03377239697609],[-111.21875493835897,37.03387929399406],[-111.21883736866776,37.03398600799962],[-111.21898142879492,37.03414223719964],[-111.21909493542263,37.03429008242976],[-111.21919795601607,37.03445449097868],[-111.21929125593977,37.03475228677054],[-111.21932280207761,37.034957851366656],[-111.21938471756026,37.0351059588999],[-111.21950837964225,37.03527033054483],[-111.219652444261,37.03542639145438],[-111.21985815935938,37.0355659611087],[-111.22016685462698,37.03577928096868],[-111.22060927849766,37.036140579537374],[-111.22089776885791,37.03650199255427],[-111.22101156923473,37.03682304522769],[-111.22110487634498,37.0371930957553],[-111.22112630296115,37.037464686141355],[-111.22113759927585,37.037802134128825],[-111.22114901955804,37.03818043690118],[-111.22121112817847,37.038394556113296],[-111.22137672271964,37.03885512495491],[-111.2216144223337,37.03948826021517],[-111.22177996836584,37.039784224995216],[-111.2219755262133,37.03997311031478],[-111.22217101039891,37.040137341638236],[-111.22241795457555,37.04032629563275],[-111.22274686463201,37.040457359302955],[-111.22313716914823,37.04055521431197],[-111.22346605045858,37.04067479702025],[-111.2237028409776,37.040847221886565],[-111.22380605021722,37.04106919447478],[-111.2238888560218,37.04129947615178],[-111.22395148207181,37.0416121823454],[-111.2239110030868,37.04188372107291],[-111.2237392461028,37.04277625318927],[-111.22355708932272,37.04371472824095],[-111.223426379059,37.04452969752794],[-111.2234581291144,37.0450153285111],[-111.22370621864304,37.04551676401716],[-111.2240260646983,37.04606752524752],[-111.22434601495807,37.04665137354677],[-111.22478921497317,37.047177085267],[-111.22557173472222,37.047992178701044],[-111.22591207584067,37.048485159405445],[-111.2260673828752,37.0490115775394],[-111.22609978420915,37.049497043626495],[-111.22601087614888,37.050624757555155],[-111.22594142200435,37.05142323470607],[-111.22594393459222,37.05227087216975],[-111.22594451939547,37.05246839268412],[-111.22599607011635,37.052591700433965],[-111.22608877625366,37.05267390572821],[-111.2264486126104,37.05284592121734],[-111.22699325398064,37.05304239997585],[-111.22733280637827,37.05318997181665],[-111.22766200120066,37.05339513376542],[-111.22790916366792,37.053567360545216],[-111.2280427341675,37.05364948663827],[-111.22816612855156,37.053706816554765],[-111.22828946903671,37.053747773432924],[-111.22847431088117,37.053788607695886],[-111.22874122999646,37.05380446808536],[-111.22890544742027,37.05377950856398],[-111.22911088314261,37.05380375403452],[-111.22926526131914,37.05386929899687],[-111.22952225405056,37.05401702408362],[-111.22976948389149,37.05427990399838],[-111.22990364548254,37.05448526660353],[-111.22992467324671,37.054682742641106],[-111.22985317004503,37.05478991131969],[-111.22969944584204,37.054872595995135],[-111.2294532544536,37.05495528703267],[-111.2291352373683,37.05503828481616],[-111.22888899567417,37.055104430196536],[-111.22858106127963,37.05517913752214],[-111.2282630666522,37.05527040383942],[-111.22783234603303,37.0554191169589],[-111.22745272787543,37.055543421426286],[-111.22711435766072,37.05572521538436],[-111.2268068014569,37.055857479798334],[-111.22648869004851,37.05598149463778],[-111.22605806914231,37.05609745135463],[-111.2255549937186,37.05621371185809],[-111.22512394431604,37.0562557226531],[-111.22471313216018,37.05623168514876],[-111.22428143237735,37.05612546982819],[-111.22395240913319,37.055978036322124],[-111.22367470394626,37.0558055218017],[-111.22343805266613,37.05562516112173],[-111.22318075630415,37.05544450393207],[-111.22297493430624,37.05528856446563],[-111.2227897978144,37.05514895937892],[-111.22264580955243,37.05503409521252],[-111.22250168384825,37.05494387959775],[-111.22231118171922,37.05484176390927],[-111.22195893163506,37.05474366349429],[-111.22155385073073,37.05465984165843],[-111.22111334386486,37.054561566081865],[-111.22074377336371,37.054520219642924],[-111.22040908713997,37.054450271967056],[-111.22012723532971,37.05436622182876],[-111.2198276795218,37.05428202678069],[-111.2194932061988,37.05421208175293],[-111.21908799863202,37.05415644557183],[-111.2185773602919,37.054058624585004],[-111.2180314154662,37.05398906648635],[-111.21755594437285,37.053961746934924],[-111.2171159100208,37.053877972985795],[-111.21667562324218,37.05377984910036],[-111.21623534005681,37.05368189356413],[-111.21561893138019,37.053570244717264],[-111.21509064563632,37.05348662734173],[-111.21450969256568,37.0534734954896],[-111.21406968785804,37.05347429055566],[-111.21370011556027,37.05350314879576],[-111.21322513494705,37.05357456989974],[-111.21264465439025,37.053730756640995],[-111.21216978786306,37.053844548119976],[-111.21164205458311,37.05395826200131],[-111.21121976824614,37.05404376147919],[-111.21068293143911,37.05406598874678],[-111.21112377157993,37.05459479204751],[-111.21134472749542,37.05505189744194],[-111.21174135794789,37.05550852119205],[-111.21310725262558,37.05691453370027],[-111.21354804156246,37.05733747630594],[-111.21394389407386,37.057582567460045],[-111.21447471845673,37.058708305973084],[-111.21512588923989,37.06119518291655],[-111.21536214166804,37.061758104162124],[-111.21589193029337,37.06264951799603],[-111.21611069791281,37.06357745655958],[-111.21611264096879,37.064262689805524],[-111.2160154818826,37.064842086486706],[-111.21595080587709,37.06521174738688],[-111.21598493916292,37.06566023660145],[-111.21611772453497,37.06605435584584],[-111.21664600758389,37.066923317218695],[-111.21681284988499,37.0676599081922],[-111.2168139799656,37.06805662685632],[-111.21701228665783,37.068450291395756],[-111.2172764874711,37.06889852779265],[-111.21731060907884,37.069265815043345],[-111.21718022849683,37.06979344227136],[-111.21718150590115,37.07024182268399],[-111.2169524112492,37.070505938701864],[-111.21678921970144,37.070979434344146],[-111.21685555848852,37.071191183182954],[-111.21672491380181,37.0714799320802],[-111.21666008687934,37.071797766969944],[-111.21633217485116,37.072062061772826],[-111.21613565131477,37.07229893376114],[-111.21584001485647,37.0724303063225],[-111.21557688752996,37.07250962315514],[-111.21538036758683,37.07274885970255],[-111.21544729027886,37.0731702776925],[-111.21538274991897,37.07359176573043],[-111.21544922884324,37.0738553418523],[-111.21558158841384,37.074170790122814],[-111.21561564354626,37.074513094122686],[-111.21558345151972,37.0748286701],[-111.21568308995612,37.07511919837317],[-111.21581559954535,37.075486307854],[-111.21601429790306,37.076013336354606],[-111.21614716322514,37.07635545931082],[-111.21634534325491,37.0766976308925],[-111.21664278712359,37.07726954845475],[-111.2169965912932,37.078321486427875],[-111.21717360611655,37.078848384136165],[-111.21695636832803,37.0795856770119],[-111.2169576708852,37.08004300090787],[-111.21691525782735,37.08046478972623],[-111.21678497785665,37.08088639774893],[-111.21656643571434,37.08116855515677],[-111.21551744780425,37.082400816026286],[-111.2151246908873,37.08299880574435],[-111.21503791093589,37.083384376393134],[-111.21499508734799,37.08366604579056],[-111.21499607998638,37.08401769338191],[-111.21512905130967,37.084542307022744],[-111.21539591293282,37.08584239952015],[-111.21544113142927,37.08633357923285],[-111.21535535759101,37.087072823000604],[-111.21526989277318,37.08777610500775],[-111.21500889175896,37.088477513053505],[-111.21439841375987,37.08967300637523],[-111.21361236273343,37.09093887574834],[-111.21335145424568,37.09160853953191],[-111.21326553308371,37.09238171227472],[-111.21326720574676,37.09297882143324],[-111.21331331716861,37.093715797736266],[-111.21344649690106,37.09431266780772],[-111.21366736837491,37.094769768861696],[-111.21388702173323,37.09501500345022],[-111.2144251413345,37.095419700801365],[-111.2146216711591,37.095162573165695],[-111.21479418721954,37.09498415758806],[-111.21496671855131,37.09488457786762],[-111.21528717725757,37.09470606418707],[-111.21580961586723,37.09441204550043],[-111.21626130765672,37.094138580980186],[-111.21691614985446,37.09379249054181],[-111.21739043606995,37.093539241047125],[-111.21757094084819,37.09343086313477],[-111.21806817991752,37.09331937454551],[-111.21856479825098,37.09299399290738],[-111.21910672042085,37.09259407561648],[-111.21937772776903,37.09244703903036],[-111.22059716202112,37.09182960478486],[-111.22159082628613,37.09133868569098],[-111.22197488840945,37.09115766857612],[-111.2227202448552,37.09086556440653],[-111.22353375827818,37.09053720276073],[-111.22502454662816,37.08991921050583],[-111.22543086720756,37.089645798563765],[-111.22802641896533,37.08795501480905],[-111.2284103903588,37.087755919172224],[-111.22904272975865,37.087391907491096],[-111.2296978971465,37.08719228008887],[-111.230398471677,37.087026489516866],[-111.23107676349692,37.08688082947753],[-111.23170923045753,37.08677155201698],[-111.23225182636386,37.08669840504675],[-111.23295287969643,37.08662477501197],[-111.23335966111159,37.08658582375728],[-111.23365349644776,37.08647703388265],[-111.23403680308792,37.08620583102091],[-111.2343078571485,37.0860226338889],[-111.2345110237264,37.08589612489719],[-111.23545992673743,37.08556741207633],[-111.23582128214532,37.0854225246155],[-111.23658918271143,37.085166247370374],[-111.23708665444441,37.085021083959305],[-111.23771835783705,37.08467509019148],[-111.23814763576188,37.08442167836917],[-111.23844089797291,37.08420246764856],[-111.23859819836902,37.08396783362753],[-111.23891332198082,37.083532152215966],[-111.23909356265436,37.08322335820082],[-111.23940858475652,37.08282363516047],[-111.24003999978994,37.08226120923675],[-111.24026599435587,37.08209851456177],[-111.24051382696634,37.08184326522618],[-111.2409871528828,37.08133534251332],[-111.2411670728578,37.08106216620449],[-111.24127936586157,37.08079165991602],[-111.24132334737789,37.08037475915474],[-111.2413223673159,37.080065822560854],[-111.24129846224787,37.07970307972908],[-111.24136533283763,37.07939636926261],[-111.24136458364269,37.079159855567454],[-111.24149947107249,37.0789070294705],[-111.24154369782886,37.078568965144775],[-111.24175161020644,37.07762417204363],[-111.24177998349468,37.07707004776858],[-111.2419589889847,37.07651275232933],[-111.2421385909561,37.076077509700866],[-111.24243861119301,37.07554731377478],[-111.24291756595305,37.07450742269495],[-111.24315717538539,37.073997604545355],[-111.24321660433132,37.07380587534933],[-111.24315555662126,37.073490647747896],[-111.24294346977257,37.07324984030788],[-111.24270164778967,37.073130979791834],[-111.24231002274999,37.07301006420448],[-111.24179605435509,37.072576064368555],[-111.24140298302783,37.07226370794881],[-111.24119097882412,37.072045517123776],[-111.24106985717775,37.07185196101895],[-111.24100913106453,37.07163565907902],[-111.24094797016674,37.07141716182739],[-111.24097665337376,37.07095977515252],[-111.24100492335576,37.0703060503712],[-111.24112382167182,37.06979867754032],[-111.24118295058044,37.06951021468409],[-111.24133287311315,37.069219202603264],[-111.24148300046174,37.06892818868903],[-111.24151207174097,37.06866207381681],[-111.24160145770499,37.0683487343387],[-111.2417806545362,37.0677917740539],[-111.24177988917157,37.06755053349744],[-111.24177920285871,37.06733427591595],[-111.24156660307197,37.06692448129301],[-111.24162644793789,37.06673055587069],[-111.24186750635279,37.06668043028493],[-111.24231944428068,37.06663223715152],[-111.24280157099197,37.066606436028835],[-111.24325407485847,37.06660550920964],[-111.24355511737815,37.066604890613355],[-111.2442491449869,37.066700365118926],[-111.24488296570864,37.06694030309688],[-111.24536670399758,37.06734936149053],[-111.24569864227485,37.067520027685],[-111.24600054897384,37.067591487920275],[-111.2463316940387,37.06751871524452],[-111.24672371433714,37.067443618667006],[-111.24702449904034,37.06729865284584],[-111.24735577436091,37.06720106097326],[-111.24780807341152,37.067200116958304],[-111.24813957959913,37.06717460776322],[-111.24880265665307,37.06707850881103],[-111.24907325706442,37.06698104209419],[-111.24937469035127,37.066908322592354],[-111.2498564487533,37.06683286056167],[-111.25039901591356,37.06673481077373],[-111.2510016264674,37.066639000133634],[-111.2513632540648,37.066613419070066],[-111.25229668808663,37.0662238314803],[-111.25269230434111,37.06596604282887],[-111.25309286312633,37.0658029555028],[-111.2533396033854,37.065691852061065],[-111.25372496447262,37.065582981311096],[-111.25407475047795,37.06548296943726],[-111.25427980890787,37.065318101950865],[-111.254896355925,37.064922419811786],[-111.25520414838577,37.0647390945522],[-111.25551193186335,37.06449060586369],[-111.25600427780934,37.064061421626306],[-111.25639398225093,37.06368157978775],[-111.25668137666653,37.063449171092344],[-111.25717431550059,37.06320010543144],[-111.25756540424605,37.06323318998306],[-111.25787488643785,37.0633653789449],[-111.25816363191961,37.06359468260689],[-111.25834947358896,37.06379247327712],[-111.2586385523457,37.064120869050235],[-111.25882487102048,37.06433469502479],[-111.25888705689601,37.0645327525719],[-111.25897089845812,37.06502838913637],[-111.25899298803095,37.065391134072414],[-111.25905643334451,37.065834989516915],[-111.25907754644865,37.06609863703942],[-111.25911986518335,37.06646133743343],[-111.2591832026991,37.06687362040372],[-111.25924631833098,37.06722057563053],[-111.25930906924683,37.0675832319531],[-111.2593929161988,37.06807886793834],[-111.25951813146794,37.06847295311214],[-111.25982906803219,37.06914839473189],[-111.26009888151935,37.0698080514233],[-111.26030612555033,37.070285355282806],[-111.26049282241583,37.070665799100695],[-111.26080394493134,37.07139086490629],[-111.26088714958789,37.07157098168173],[-111.26134187588642,37.072146834855],[-111.26165182879541,37.07252683857303],[-111.2620865945283,37.07329906706757],[-111.26239695347583,37.073794204842216],[-111.26279012900768,37.074354484633865],[-111.26307904427105,37.07461753489766],[-111.26351272394075,37.07494560284856],[-111.26392581781742,37.07529160590292],[-111.26427647429027,37.07555435046294],[-111.26452454675092,37.075882994178954],[-111.26471039650511,37.07613057259367],[-111.2648754987695,37.07622930257311],[-111.26526724687838,37.07649212128798],[-111.26555677658938,37.07680480072343],[-111.26574306741637,37.07711753835533],[-111.26594966016879,37.07733113704817],[-111.26609418741991,37.07744797563405],[-111.26634150260078,37.07749705274595],[-111.26671169204117,37.07749621923011],[-111.2670208885687,37.077527262133934],[-111.26739142655539,37.077625356737784],[-111.26790702718911,37.077872186971426],[-111.26829909060669,37.07821822325589],[-111.26867105871132,37.078661371516795],[-111.26894054072012,37.07913851716742],[-111.26910648201098,37.07946953187926],[-111.26925131738425,37.07973272779946],[-111.26943725607165,37.079881207345906],[-111.26962287585714,37.07999574793832],[-111.2698498486884,37.08012809258573],[-111.27005620248895,37.080208654103735],[-111.2705096504848,37.08039045416907],[-111.27094291513286,37.08070245389666],[-111.27119123912179,37.081030913332945],[-111.27143873576235,37.081244404251834],[-111.2716652675208,37.08130956359264],[-111.27209814050337,37.08139179366777],[-111.27250970454911,37.081406548933394],[-111.27281859475116,37.08140583729237],[-111.27327140045158,37.08140479670547],[-111.27378582788555,37.08137203899346],[-111.27401218267588,37.08138722354097],[-111.27434190391104,37.081435920424546],[-111.27471262066248,37.08151862765587],[-111.27520773341953,37.081796873363444],[-111.27625989777249,37.08240520979654],[-111.27663115441142,37.08263410760313],[-111.27687900768315,37.082881523510636],[-111.27720972514993,37.083259413090815],[-111.27745806530855,37.083639684320325],[-111.27758331112041,37.08406751153885],[-111.27758451126962,37.08439653901482],[-111.27756543015468,37.08482707152202],[-111.27754601037486,37.08510650901207],[-111.27746503982841,37.08555288550527],[-111.27736421561585,37.086046745079805],[-111.2772220419508,37.08664199367443],[-111.27703807596374,37.08698715006882],[-111.27689502554296,37.08728494180908],[-111.27671070292475,37.08753336655743],[-111.27628096685915,37.08821048362348],[-111.27619964596973,37.088505933755634],[-111.27613975708637,37.08901776469126],[-111.27612054661404,37.08941419318671],[-111.27599837753202,37.0897774362985],[-111.2758553729253,37.09009092799584],[-111.27540628175858,37.09113104529866],[-111.27512148886404,37.09203977700916],[-111.27499915988193,37.09241871869063],[-111.27500058460996,37.09281307791386],[-111.27502242984103,37.093144247159906],[-111.27551843193021,37.093704413327856],[-111.27620024065446,37.094360711505644],[-111.27644914765,37.094772555451826],[-111.27682260336476,37.09564615751981],[-111.27711420728575,37.096553547508705],[-111.27723809214997,37.09671785841895],[-111.27740386186262,37.09686619793382],[-111.27763080415114,37.0970302659857],[-111.27793985335498,37.097112769191895],[-111.27833100138925,37.09711185349319],[-111.2790925212219,37.09707629743495],[-111.2794633520594,37.097109189512146],[-111.27987569135122,37.09725474892719],[-111.2805563394521,37.09763399483785],[-111.28109288340839,37.09791211761683],[-111.28156769244336,37.098192747837615],[-111.2819392886455,37.09848695963753],[-111.28218681493045,37.0986847323767],[-111.28241435459864,37.09894788450307],[-111.28266315559301,37.09937541394418],[-111.2828705110151,37.09982127148936],[-111.28303682959837,37.1002827628534],[-111.28316183376342,37.10062954943647],[-111.28341074165729,37.101138279277286],[-111.28351515374109,37.10150082065151],[-111.2835158355624,37.10168347955719],[-111.28349634661228,37.101996680550194],[-111.28341473646535,37.10221093705937],[-111.28333321974323,37.10239362362764],[-111.28314860157928,37.10262399571642],[-111.28282010205294,37.10287260302737],[-111.28243014787968,37.10320272813935],[-111.28212229343517,37.103451281966656],[-111.28193800674957,37.10371541626269],[-111.28193861850228,37.103879841316896],[-111.2820626803346,37.10402844550532],[-111.28247482648864,37.1041106924848],[-111.28292807056692,37.104190812258096],[-111.28334016282206,37.104257355380184],[-111.28375267548873,37.10443683595981],[-111.28418567513377,37.10468362186846],[-111.28457808260606,37.1048967416754],[-111.28503232740758,37.1052427391211],[-111.28543287720962,37.10543304764574],[-111.28574302595133,37.10557224852099],[-111.28632432846666,37.10585023970795],[-111.28667400218256,37.10612895632852],[-111.28704368856638,37.10668465419257],[-111.28719980228806,37.107056011017434],[-111.28731772054213,37.10758311230686],[-111.28753236489443,37.10804684171896],[-111.28776577325638,37.10840230922616],[-111.28817356437793,37.10877322492425],[-111.28854195539112,37.10903602177596],[-111.28892953891034,37.10919039070783],[-111.28949161298698,37.10938974380536],[-111.29003421877479,37.1096227388148],[-111.2911377685586,37.109868022753055],[-111.29204812935237,37.110082040648535],[-111.29338415504688,37.11037164075901],[-111.29377160651376,37.110433987609625],[-111.2940812737585,37.110493994703404],[-111.29437177095508,37.110556411658735],[-111.29512742658557,37.11087900064499],[-111.29576692376159,37.11114109602073],[-111.29638706673484,37.1113581685208],[-111.29714253102415,37.11157253107835],[-111.29772319124402,37.111663418619486],[-111.29830422336642,37.11184900947625],[-111.29902163412198,37.11214027053195],[-111.29979608160991,37.11224635151602],[-111.30099648595105,37.112446233842135],[-111.30202211227385,37.112583234771904],[-111.3033963496056,37.112656372514174],[-111.30438414068529,37.112870262897346],[-111.30519719596745,37.11308679460487],[-111.30554579350168,37.11317823693805],[-111.30595315612682,37.113362041073515],[-111.30605115962939,37.113672748148026],[-111.30605439895427,37.11447715759268],[-111.30609699616676,37.11542360875819],[-111.30606107343685,37.116135767259365],[-111.30612343807714,37.117174678161525],[-111.30637484508412,37.11720542902967],[-111.30672241853891,37.11698608034785],[-111.30706922573079,37.1166289769333],[-111.30764827257639,37.116255740128125],[-111.30822743710131,37.115913901872155],[-111.30878686114785,37.11554054048135],[-111.30930814991399,37.11527549111466],[-111.31017716395014,37.11488561706592],[-111.31064108540392,37.114668146362085],[-111.3111618252994,37.11432425147165],[-111.31139315675642,37.114138789893296],[-111.31152792920186,37.11395138583617],[-111.31177767163062,37.113578826396584],[-111.31210481380258,37.11311371461915],[-111.31237499020912,37.1129440221623],[-111.31260746701813,37.11298848156262],[-111.3128987044265,37.11317476045654],[-111.3132673891888,37.113482553453885],[-111.31367507969901,37.11379243622981],[-111.31437346054362,37.11425483747939],[-111.3148393825455,37.11462550459515],[-111.31526743876152,37.11516745017441],[-111.3157139095426,37.11552229901263],[-111.31606304696427,37.115737623994974],[-111.31637329362236,37.115876575987855],[-111.31662503210771,37.11593684882559],[-111.31683772801416,37.11593611172091],[-111.31728272645645,37.11593492189494],[-111.31770875247994,37.11593378149583],[-111.31815369163341,37.115919080947265],[-111.31854076490959,37.115978986273554],[-111.31902479335433,37.1160857252011],[-111.31929593634811,37.11614813110042],[-111.31985746155412,37.11628622919352],[-111.32022591005948,37.11637774860785],[-111.32084568562176,37.11653155386842],[-111.32121371102063,37.11662290178467],[-111.32148518639106,37.11676194455855],[-111.32165948740395,37.11685398559692],[-111.32164135041837,37.11710185924802],[-111.32154584153736,37.11739737937811],[-111.32145072162689,37.11778524197839],[-111.32133595196784,37.118062747803826],[-111.3210476430673,37.11852980260548],[-111.32089428088535,37.11885502227284],[-111.32049130293713,37.11967639513222],[-111.32031887221666,37.120080164212986],[-111.32012764514717,37.120576495557415],[-111.32007122645577,37.120995822524556],[-111.32014991438307,37.12125929825274],[-111.32036373587859,37.12152241635731],[-111.32044234116087,37.12181510068814],[-111.3205228697362,37.12251361503081],[-111.32062144726221,37.12299329661586],[-111.3207578483533,37.12319348076796],[-111.32091338266159,37.123380278196365],[-111.32116540950612,37.123503339556024],[-111.32149476063535,37.12356339144426],[-111.32178544198656,37.123702382077106],[-111.32207587360614,37.12373299277233],[-111.32236645254939,37.12374790524821],[-111.3226187479902,37.12393206978605],[-111.3227554922377,37.12421109230658],[-111.32308524671052,37.124365671678156],[-111.32366628691774,37.12456497980896],[-111.32415044022834,37.12468739676783],[-111.3245763647422,37.12474937227426],[-111.3251459065138,37.12482209000349],[-111.3256573677107,37.12496941399198],[-111.32604507968902,37.125117080774736],[-111.32644855440562,37.12539991649449],[-111.32682162294648,37.12572116088946],[-111.32730306424322,37.12604210166955],[-111.32750504324834,37.12619027130451],[-111.32776939228363,37.126426224938754],[-111.32787855555694,37.12666023900383],[-111.32809630718182,37.12689631866143],[-111.32842242078279,37.12712972892764],[-111.32865518954426,37.127277814067625],[-111.32891937598447,37.127524903704234],[-111.32904442686191,37.12777474568028],[-111.3291847607773,37.12804716341122],[-111.3294175313354,37.12814561160154],[-111.32971211317157,37.128205566698696],[-111.330131223964,37.12844108288995],[-111.33058164643397,37.12879805466614],[-111.3312949276342,37.12938202591267],[-111.33158465677121,37.129584131926556],[-111.33180140497792,37.129680428798245],[-111.33218719006994,37.12981457170112],[-111.33242800054981,37.12987028127955],[-111.33265692721685,37.12990778719206],[-111.33287320650295,37.129898238111714],[-111.33311393882941,37.12983897978524],[-111.33334181267092,37.12973232255894],[-111.33358174998837,37.12954021082934],[-111.33382204932687,37.12938388732652],[-111.33400214986322,37.1292979578568],[-111.33423043872641,37.12923856298134],[-111.33467526379383,37.12918109680141],[-111.33498775893509,37.12909226001887],[-111.33525239722789,37.129053187357556],[-111.33558952507255,37.129052234086046],[-111.33587837116565,37.129051416177695],[-111.33617902651145,37.12905056317519],[-111.3365524570734,37.129155353497076],[-111.33681833863453,37.12939583718668],[-111.33712099991838,37.1298006444792],[-111.33732704110521,37.13014477846447],[-111.33748455350376,37.13033813483833],[-111.33767591801546,37.1305089370816]]]}}]}
