{"type":"FeatureCollection","name":"huc12_capitol_creek","provenance":{"source":"Watershed Boundary Dataset union (National Map WBD service)","layer":6,"field":"huc12","units":[{"code":"140100040402","name":"Capitol Creek","areasqkm":95.15,"loaddate":"2024-08-15","tnmid":"{FD261D4E-291E-4366-9C98-128FA2E20D91}","tohuc":"140100040403","hutype":"S"}],"version":{"loaddate_max":"2024-08-15","tnmids":["{FD261D4E-291E-4366-9C98-128FA2E20D91}"]},"outlet":{"drains_to":["140100040403"],"closed_basin_units":[],"no_outlet":false,"member_huc12_count":1},"requests":["https://hydro.nationalmap.gov/arcgis/rest/services/wbd/MapServer/6/query?where=huc12+IN+%28%27140100040402%27%29&outFields=huc12%2Cname%2Careasqkm%2Cloaddate%2Ctnmid%2Ctohuc%2Chutype&returnGeometry=true&outSR=4326&f=geojson"],"date":"2026-09-06T23:53:31Z","geometry_sha256":"7c3cce302ad8b4e6d37bd8bb209c4a12e22412a4e2a1ec742ccbdd3152f7c739","geometry_type":"Polygon","area_km2":95.2,"area_projection":"ESRI:102008"},"features":[{"type":"Feature","properties":{"name":"huc12_capitol_creek","area_km2":95.2},"geometry":{"type":"Polygon","coordinates":[[[-106.98642270666618,39.30924770979588],[-106.987237786751,39.30985369509987],[-106.98813913923911,39.310458182886784],[-106.98884080701932,39.31086505899653],[-106.98962395109751,39.31110298277741],[-106.99013113721197,39.31149640892804],[-106.99070490016707,39.31195570680607],[-106.99114885656365,39.312400465132356],[-106.99155778225739,39.313130648709745],[-106.99185462605146,39.31371196206399],[-106.99247392101506,39.31425423531143],[-106.9928273981979,39.314549758888326],[-106.9936550529001,39.31498816020792],[-106.99406329407759,39.315538853892285],[-106.99413937329732,39.31593964775455],[-106.99406694662754,39.316426750794335],[-106.99409610773829,39.316694319786095],[-106.99438540119237,39.31700768510126],[-106.99461239648154,39.31740589286964],[-106.99475460248595,39.31785581705024],[-106.99484797068165,39.31810552742604],[-106.99487999202825,39.31847355965265],[-106.99512237186495,39.318653698860395],[-106.99562394171225,39.31884615100049],[-106.99586679136786,39.31904303161266],[-106.99610917569613,39.319223167964026],[-106.9964186264469,39.31948592756901],[-106.99655654928405,39.31978512621282],[-106.99669162895331,39.31998387013381],[-106.9968276491587,39.320216078201796],[-106.99702977009763,39.32049742743729],[-106.99742879905189,39.32087592615852],[-106.99784414320834,39.32106984059997],[-106.99836109580659,39.32104420553026],[-106.99892177659619,39.32097130870297],[-106.99877083357734,39.32059088757682],[-106.99889355063165,39.320189359389104],[-106.99917021556949,39.31969835812631],[-106.99964898437828,39.31923861417779],[-106.99995392738293,39.318955512044305],[-107.00023355047298,39.318568655671136],[-107.00049080551248,39.3181821759183],[-107.00096858707276,39.317687712092315],[-107.00122386851356,39.31723180582143],[-107.00143001300667,39.31662044405342],[-107.00162320469165,39.3163392689573],[-107.00200307527584,39.316332734659106],[-107.00236011517711,39.31630922104945],[-107.00284874119947,39.31619662207282],[-107.00408275331203,39.315567548970165],[-107.00423371878877,39.31537393480601],[-107.00475706469689,39.31491166459222],[-107.00530726574043,39.314606961496644],[-107.0055495862883,39.3144812352381],[-107.00545623965218,39.314343911122265],[-107.0053614188807,39.3141545122943],[-107.00535200094325,39.31382471933282],[-107.00539073090842,39.31361565497889],[-107.00538626987472,39.313459440640536],[-107.005314270803,39.31328701668668],[-107.00524328952251,39.31314930935497],[-107.00521553517349,39.31296050084355],[-107.0053029214877,39.312889529845755],[-107.00495884697095,39.312582873951875],[-107.00468080132254,39.3122403371421],[-107.00466890852648,39.31182376008513],[-107.00452443786922,39.311461559003526],[-107.00411363379821,39.311166464429434],[-107.00379338709438,39.31091148795906],[-107.00365289687214,39.310688149771025],[-107.00364348701953,39.31035835576231],[-107.00369516170795,39.3098191140385],[-107.003688722584,39.30959346685926],[-107.00374931035664,39.30936666376357],[-107.0037885514632,39.30917496471099],[-107.00405271185228,39.30903148443607],[-107.0042041561311,39.30885521350975],[-107.00430696292545,39.30854085665793],[-107.00455322797578,39.308553977449016],[-107.00477765318489,39.30858484261116],[-107.00508896254996,39.30852738555025],[-107.0056217201073,39.30839663552933],[-107.00655367999377,39.30815481362181],[-107.00714900341403,39.30786669477104],[-107.00752386858545,39.3076865632382],[-107.00821302373207,39.30755311474584],[-107.0087844959832,39.30721329471341],[-107.00933362623493,39.306873858802696],[-107.01049889387203,39.30619382263052],[-107.01127534999291,39.30540899726486],[-107.01318713829238,39.30347654456725],[-107.01329436120469,39.30295661872915],[-107.01345768660144,39.30234562507844],[-107.01374160902846,39.301655960373076],[-107.0140606978039,39.30099271402949],[-107.01691662445012,39.29771232166247],[-107.01827664234924,39.29603896211224],[-107.01931098861853,39.294701195185866],[-107.02076785119348,39.29406810170945],[-107.02179790710895,39.294137038837036],[-107.02236136099788,39.29430091301772],[-107.02343559965229,39.29435170775546],[-107.02414742019185,39.294235129522924],[-107.02496492393134,39.29390831553147],[-107.02586526850968,39.29335430507009],[-107.02740638497345,39.2925459956029],[-107.02881863361813,39.2916837293652],[-107.03120456619928,39.29018744098553],[-107.03402549268539,39.28881836022915],[-107.03537564618436,39.287596493470566],[-107.03681865224607,39.28649455355672],[-107.03819608847856,39.28544583938761],[-107.03869822156956,39.28503762585543],[-107.03965679135136,39.284187263339746],[-107.03995536799559,39.2836957744541],[-107.04047679510228,39.283183023425714],[-107.04082758811903,39.28295112357252],[-107.04095756535749,39.282809915400975],[-107.04085663604205,39.28241225478349],[-107.0408166717917,39.28180513702075],[-107.0408725955114,39.2814221068477],[-107.04130868446269,39.28104977100604],[-107.04181478810726,39.28078040247951],[-107.04261073227991,39.28048858575449],[-107.04401018083011,39.28020352799751],[-107.04483095982711,39.27999807569819],[-107.04549846108382,39.279834316851975],[-107.04595482950266,39.27945734427837],[-107.04656751556074,39.279012420436736],[-107.0475354996867,39.27849178583414],[-107.04812888364428,39.2781513901254],[-107.04869739414993,39.27772459194565],[-107.04941513638383,39.27705205462358],[-107.04993443448328,39.27646982695427],[-107.0505724970498,39.27536451942119],[-107.0511222489357,39.27429551003973],[-107.05158264809522,39.27322806433821],[-107.05223485014432,39.27260874921076],[-107.05362700257778,39.272080584892954],[-107.05424262792344,39.271739767201346],[-107.05478770767154,39.271278611516294],[-107.05555810735079,39.27088296898397],[-107.05607221408621,39.27089125934215],[-107.0566781834409,39.27098474399835],[-107.0569444378029,39.27092099710818],[-107.0566475221436,39.270700485580456],[-107.05602379668902,39.26999949812136],[-107.05559592642423,39.26943020435584],[-107.05532095570904,39.269007085584676],[-107.05490013182936,39.26824452258276],[-107.05425057262383,39.267422412313174],[-107.05416887893358,39.26692024354072],[-107.05428612704446,39.266345088237514],[-107.05449573005139,39.265872501427985],[-107.0547154876143,39.264982952714774],[-107.05540666666526,39.26417191492931],[-107.05625920829408,39.263531679372235],[-107.05718885232372,39.263237392661004],[-107.05853866536123,39.262796746912706],[-107.0590664112176,39.26250955077202],[-107.05960528091214,39.26184010719791],[-107.05994829451852,39.261347786867255],[-107.06072309594265,39.260344204460914],[-107.06126194587426,39.25967475342281],[-107.06205241930682,39.25844512637569],[-107.06237103197519,39.25788376772711],[-107.06248130287126,39.25765410108933],[-107.06290029867932,39.25729529449967],[-107.06305944691002,39.25705370719287],[-107.06337913126849,39.25669215276253],[-107.06378482572215,39.256275007999285],[-107.06404627769065,39.25559648721664],[-107.06412692484359,39.25529983277149],[-107.06455356441644,39.25461499204162],[-107.06491577322382,39.254018120420504],[-107.06519020315322,39.25347489994617],[-107.06580959782984,39.25250877409946],[-107.06623620506333,39.25182392906436],[-107.06720052316462,39.250434897407],[-107.06809628543672,39.24899495499254],[-107.0685112487075,39.248154320133466],[-107.06929995335726,39.24739324928721],[-107.06989844513554,39.246479577004834],[-107.07005660881265,39.24578211865731],[-107.07008491832052,39.24522591043604],[-107.07016350024662,39.244859813319664],[-107.07040888045638,39.244091337094964],[-107.07101396856376,39.24340330071051],[-107.0712066976164,39.24312201107548],[-107.07155157612533,39.24269909180184],[-107.07182438100239,39.242103789197884],[-107.07209258560688,39.24135226496423],[-107.07271638382502,39.24054232511572],[-107.07348124718715,39.23997299180008],[-107.07535032778136,39.23898455206054],[-107.07839563456085,39.2377493327739],[-107.07974584734863,39.23734317014408],[-107.08224534404968,39.236534383537105],[-107.08530018375095,39.23562877040306],[-107.08657614898388,39.234980731757894],[-107.08712918780539,39.23453717670823],[-107.08893075461613,39.23380970834939],[-107.09223876112402,39.23241312441892],[-107.0929918844037,39.23220855349875],[-107.09359239739135,39.23212830045299],[-107.09442226913566,39.23225229862408],[-107.09496616041264,39.2325203743463],[-107.09568391791792,39.23252637789924],[-107.09628392335743,39.23253138990528],[-107.0969332031869,39.232589161894914],[-107.0977481036087,39.23220979415509],[-107.09907421639404,39.23175173998209],[-107.09984548115091,39.23140786773919],[-107.1001839277224,39.230776592546796],[-107.10061317959607,39.230195773688976],[-107.10077980809814,39.22979334579395],[-107.10083432775104,39.22937556854839],[-107.10081569040385,39.228750725691704],[-107.10052874963746,39.22811336212625],[-107.10072337952525,39.22790145466207],[-107.10159789664087,39.22727786308393],[-107.10176762343232,39.22697957741105],[-107.10182472484337,39.226648591061135],[-107.10192904799393,39.22640357882248],[-107.10234993385737,39.22629179003868],[-107.10337489812183,39.22622117518731],[-107.10476106957212,39.22553621335669],[-107.10533192557898,39.225213306495355],[-107.10620429212781,39.22452024775878],[-107.10747882005629,39.22383726658547],[-107.10825204853035,39.223562785237675],[-107.10871649999012,39.223415453780355],[-107.10904757857966,39.22328788805205],[-107.10961257577425,39.222770564116715],[-107.10989330199548,39.22245289178367],[-107.11021553756936,39.22203026199327],[-107.11043192195837,39.221800582335646],[-107.1107157626387,39.22158705030003],[-107.11093213085803,39.22135736084107],[-107.11110649654961,39.22121527627443],[-107.11134154254034,39.22086368873915],[-107.11171255124427,39.220579108106804],[-107.11245143622669,39.21990580261786],[-107.11303775134128,39.21935680253523],[-107.11443923906717,39.21844569093828],[-107.11507274717522,39.217982668903915],[-107.11551224433472,39.21774892755435],[-107.11608350817671,39.21744332500417],[-107.11669991505667,39.217154259566826],[-107.11760221257245,39.21672106980674],[-107.11801935246116,39.21648772722997],[-107.1190279709807,39.21587892767916],[-107.1197729896599,39.21541384458925],[-107.12021348844092,39.21521479137322],[-107.12058496516711,39.2149475446011],[-107.12082726954533,39.21483893289702],[-107.12135750912495,39.214655619467486],[-107.12177671424048,39.214491680833746],[-107.12254821255931,39.21416503573731],[-107.12298921709186,39.21398333249804],[-107.12388985272435,39.21349803166424],[-107.12408541955496,39.21332079997116],[-107.1242337574595,39.213057603062204],[-107.12442356698747,39.212689453278756],[-107.12454958535048,39.21242666187192],[-107.1248328205663,39.21219573623383],[-107.12513627955411,39.21189497682698],[-107.12535466538957,39.2117346893761],[-107.12563685137314,39.21146904763015],[-107.12584843965685,39.21108313437292],[-107.12602011938574,39.21085424231271],[-107.12621043556352,39.21050345066756],[-107.12644903888277,39.21027332681051],[-107.12682097734299,39.21002341294272],[-107.12715057011904,39.20976881448098],[-107.1272354375572,39.209703248152266],[-107.12747455830606,39.20949049300569],[-107.127605274858,39.20938390811533],[-107.1275913743273,39.208848205362855],[-107.12736309983717,39.20855535973931],[-107.12724441352353,39.20817611824827],[-107.12726783889119,39.20793729916797],[-107.12710609183439,39.207654194011525],[-107.1267416965276,39.20725559823147],[-107.12623626931446,39.206752308809634],[-107.12599437366971,39.20635146304821],[-107.12589710948062,39.20617445764366],[-107.12567160898811,39.20580908327052],[-107.12551022035912,39.20553788032554],[-107.1253499357596,39.20530241579054],[-107.12526403525887,39.20499409163381],[-107.12520517943808,39.20456606569816],[-107.12510994454324,39.203948011090965],[-107.12507883139337,39.20342412999281],[-107.12515705579,39.20296977090459],[-107.12533055191241,39.202626910434326],[-107.12549883870446,39.20211131658035],[-107.12554822089227,39.201717074947524],[-107.12539043630419,39.20156500504246],[-107.12538073899069,39.20124335930767],[-107.1253899557055,39.2010405715407],[-107.12533432573491,39.20071976642703],[-107.12502201834154,39.20052283376879],[-107.12451569820301,39.20049632129859],[-107.12382744047335,39.20053270571946],[-107.12356501742603,39.200465982833876],[-107.1229874096815,39.20010701182834],[-107.12242548023362,39.19975968274181],[-107.12199248597847,39.199624543102644],[-107.12157874800972,39.199620162938054],[-107.1207968463016,39.19959864360028],[-107.12008935294676,39.199504254160026],[-107.11959690998275,39.19942977797028],[-107.11933342243181,39.19932730529273],[-107.11885092202135,39.199073861961466],[-107.11864401396029,39.19881540469516],[-107.11829681240803,39.19847606113536],[-107.11781398950238,39.19821070061417],[-107.11756543644304,39.198096028681555],[-107.11790046492489,39.19803032753896],[-107.11816286012443,39.19801533912654],[-107.11846335377348,39.19790090983671],[-107.11882506221927,39.1977036184082],[-107.1189236469318,39.19741576310996],[-107.11921372820842,39.19687412259496],[-107.11939135747943,39.19666825973109],[-107.11949879059752,39.19616570271775],[-107.1196251251675,39.19578198259963],[-107.11966209263807,39.19548332849601],[-107.11966845001534,39.1951852328615],[-107.11979514121649,39.19481343322505],[-107.11995494701395,39.19452446261067],[-107.12017061903894,39.19405567632545],[-107.12020829977186,39.19378085925105],[-107.12025951003125,39.19344618452265],[-107.12052361472479,39.19305994666624],[-107.12080972365119,39.19238727265286],[-107.1209499120395,39.19195562681912],[-107.12092260235653,39.19182599532596],[-107.12082484499237,39.19136194211219],[-107.1208155303612,39.19105221025556],[-107.12062645835009,39.190876863025174],[-107.12061391966536,39.190459917356755],[-107.12051722321154,39.18928167474468],[-107.12066770269972,39.18868297250314],[-107.12076903985029,39.187977892178715],[-107.12082238271019,39.1877146998698],[-107.12073843694353,39.18746949398137],[-107.1204108797499,39.18727283750541],[-107.12008333692933,39.18707617003515],[-107.1198344739512,39.18694957922047],[-107.11964612957549,39.186798065704735],[-107.11947981368714,39.186360080032856],[-107.11934304069355,39.18588579573204],[-107.11938099810757,39.18511035283743],[-107.1193965811828,39.18460946574251],[-107.11956881247728,39.18422490892974],[-107.1195605785194,39.1839509175233],[-107.11956801297669,39.183688560324526],[-107.11970183320793,39.183555014260925],[-107.11995560907232,39.18333583514735],[-107.1199527452432,39.18324054581312],[-107.11982134507333,39.18294495510769],[-107.11955288355067,39.18267569853609],[-107.11942293146502,39.18242775385534],[-107.11943036682064,39.18216539654218],[-107.11951468269321,39.18191355970122],[-107.11957161881423,39.181769492971995],[-107.11947154200001,39.181497172233726],[-107.11947933398677,39.18124671939247],[-107.11953197436411,39.18095970052019],[-107.1194130140643,39.18056853291114],[-107.11935364800044,39.18012144484278],[-107.11921795478183,39.17968290227221],[-107.11900359160221,39.17917427973808],[-107.11871414094293,39.178714691581625],[-107.1185030036135,39.17831326873236],[-107.11821462194942,39.1778894304382],[-107.11776855271529,39.17731348878591],[-107.11755814302124,39.17693591080369],[-107.11737833264071,39.176557756979406],[-107.1171583621771,39.17637104490261],[-107.11653156987411,39.17538598405838],[-107.11630407961324,39.17494910487998],[-107.11606235644503,39.17454824271872],[-107.1159754794756,39.17420415996767],[-107.11587185790923,39.173812708244554],[-107.11569493651068,39.17352986044454],[-107.11545072231416,39.17304560192863],[-107.11514638387568,39.17259819650784],[-107.11493920362507,39.17232781528813],[-107.11463591980873,39.17191614781107],[-107.11455226689286,39.171679275949494],[-107.11434938328425,39.17155184676732],[-107.11409594788135,39.17127038412436],[-107.11389235550199,39.171119130011625],[-107.11326662949925,39.17067754845911],[-107.11292352246807,39.170469230527544],[-107.11256546926717,39.17027309339376],[-107.11223838548571,39.17008830700228],[-107.11200276277657,39.16988996386838],[-107.11168420400715,39.169478556520346],[-107.11150552730051,39.16913614203312],[-107.11142260022336,39.168923095499686],[-107.11135033614866,39.16855491013822],[-107.11117488798715,39.1688322334846],[-107.11107132840456,39.16895330132706],[-107.11092042041999,39.16902755561012],[-107.11048089361607,39.169178551659854],[-107.11008299384413,39.1691857620042],[-107.10928505810648,39.16912869210474],[-107.10904161825776,39.16918078099558],[-107.10873910609423,39.169305449573514],[-107.1083597134138,39.169419579985494],[-107.10799634488137,39.169557275861074],[-107.10764897085258,39.16971851338268],[-107.10724109708602,39.16990468318445],[-107.10673855975314,39.169997214577556],[-107.1061128795645,39.17006811996673],[-107.10534411392076,39.169962826367794],[-107.10477289229958,39.16980627786462],[-107.10435506519968,39.1696588663725],[-107.10396891539166,39.169546660629635],[-107.103690598452,39.169456335684394],[-107.10349094967674,39.16943610180546],[-107.10322935757105,39.16939314353326],[-107.10290620481729,39.16933938750273],[-107.10272150580498,39.16930696225975],[-107.10236842927075,39.16927757630451],[-107.10216912455024,39.16926925095487],[-107.10207162949415,39.16908030132897],[-107.10203463327748,39.16886642515101],[-107.10203109481357,39.168747558650345],[-107.10202292733103,39.16847329241538],[-107.10213683820062,39.168185173226576],[-107.10218776549073,39.167838600129514],[-107.10226788353594,39.1674438103254],[-107.1024255773942,39.16708339052797],[-107.10249569988527,39.16686757347631],[-107.10253593542684,39.16667614560988],[-107.10249929494304,39.16647417396078],[-107.10215340223614,39.166170503945814],[-107.10183776568633,39.165854385081765],[-107.10164845202843,39.16566709854109],[-107.10122746555368,39.165412461928845],[-107.1005869317218,39.16498299832004],[-107.10022644678143,39.16470343589037],[-107.10000688864451,39.16452860311432],[-107.0996481922499,39.164308606200606],[-107.09936848381987,39.16417060612644],[-107.09903111612503,39.16415285583736],[-107.09876990221008,39.16412180170096],[-107.09858380092763,39.164041724368836],[-107.09830515969615,39.16393947242518],[-107.09770588189204,39.163866823780396],[-107.09750693559931,39.163870407981626],[-107.09730658344317,39.16382634374602],[-107.0968880996748,39.16365508394761],[-107.09651375822119,39.16342343104788],[-107.09607998692331,39.163252455140494],[-107.09541277402583,39.16295455365456],[-107.09499394530438,39.162771375786136],[-107.09452674679648,39.1625056338906],[-107.09414888664188,39.162154842547885],[-107.09390415411747,39.16164670686463],[-107.09382127914262,39.16143365296902],[-107.09358432513022,39.16118760803997],[-107.09339222040671,39.16090499852371],[-107.09308051847785,39.1607198873135],[-107.0924186622344,39.16060066435022],[-107.0921535792755,39.16043855475898],[-107.09174972457154,39.16024317465147],[-107.09142767944051,39.16022512594945],[-107.09093765653785,39.16022199222287],[-107.0903291090183,39.160352115242766],[-107.09022093029854,39.16031830601574],[-107.09019434286107,39.15993735816126],[-107.0901037333916,39.15946220812175],[-107.0899287020484,39.159238875614555],[-107.08965904666474,39.15892189739997],[-107.089636703767,39.15868389863377],[-107.08956315599974,39.15826804926662],[-107.08943475260965,39.15806772034299],[-107.08928822840365,39.15777236373503],[-107.08884709720866,39.15735117954687],[-107.08859416576064,39.15708157002309],[-107.08869388235043,39.15682948034566],[-107.08867223654535,39.156615314757076],[-107.08852642470336,39.15634378613051],[-107.088289154484,39.15608580562402],[-107.08820700624622,39.15589657399383],[-107.0880131794523,39.15555439291965],[-107.08783324600257,39.15516427306308],[-107.08749960272291,39.154753076333336],[-107.08717984649921,39.15429394784849],[-107.0870034398353,39.15402296615044],[-107.0867985475937,39.153824005108426],[-107.08665520072888,39.15363586872591],[-107.08649692745729,39.15345991059416],[-107.08635287990653,39.15324794717502],[-107.08619213357296,39.15298859205199],[-107.08601854941567,39.15281290955324],[-107.08590828480779,39.15270761171949],[-107.08585815971327,39.15256547538126],[-107.08560385024958,39.15224820517384],[-107.08552172806294,39.1520589715826],[-107.08539474401101,39.15190629266898],[-107.08522116524361,39.15173060816487],[-107.0849682706265,39.151460989643944],[-107.0847456267766,39.15117890950601],[-107.08455780522036,39.15103923823811],[-107.08440094050714,39.15091094197596],[-107.08413592312526,39.15074879264312],[-107.08385665127649,39.15062268676394],[-107.08366953669437,39.15050682188569],[-107.08349666939269,39.1503549699949],[-107.08332591043697,39.150274592764895],[-107.08293492409943,39.15020826035554],[-107.08272810227663,39.15026529684069],[-107.08227982318692,39.1502620574783],[-107.08208117243994,39.150389430487635],[-107.081913410264,39.150583799973774],[-107.08177255981732,39.150710148350754],[-107.08156077749753,39.150882787642175],[-107.08144849527352,39.150997372192464],[-107.0813224221133,39.15113471053482],[-107.08108207516409,39.15131912247218],[-107.08064240732469,39.15160840026179],[-107.08048842171195,39.15178001261861],[-107.08023063217486,39.151863417038406],[-107.08004444195919,39.15192302619547],[-107.07981422620975,39.151960905629316],[-107.07937554382221,39.15228393885212],[-107.07900413896124,39.15243690673849],[-107.07867872963948,39.15267911746061],[-107.07815630809779,39.15310495579585],[-107.0777166169022,39.15339422972743],[-107.07736262767963,39.15364819791349],[-107.07714918976477,39.15376457449863],[-107.07693341623016,39.15380220007469],[-107.07679088503559,39.15387228029486],[-107.07631616134056,39.154054344483924],[-107.07616299588966,39.15415363214016],[-107.07596728802355,39.154382280494104],[-107.07587408152462,39.15465411065257],[-107.07568631925719,39.155152775868025],[-107.07567847337151,39.15537805506967],[-107.07577411699981,39.15568030049051],[-107.07578337683375,39.15599532964957],[-107.07583433376824,39.156253339047495],[-107.07566852722468,39.15651520931227],[-107.07550106418773,39.15672082755699],[-107.07543575486994,39.15695839273097],[-107.07540298522669,39.15731920224264],[-107.0753692130636,39.15764626835268],[-107.07527466537992,39.15787309081392],[-107.07512231829426,39.158100954596904],[-107.07495956961593,39.158959397625274],[-107.07481383143582,39.159412281079426],[-107.07465130643797,39.159786663378924],[-107.07454329929642,39.16004750493719],[-107.07436355988278,39.16032762359761],[-107.07414488478982,39.16075929995705],[-107.07402704109589,39.16117789772956],[-107.07400540696892,39.16142595495788],[-107.07389838527922,39.16172054816121],[-107.07377558288493,39.16197038935636],[-107.07366920888059,39.16228748478101],[-107.07366831146359,39.16274904278197],[-107.07372257330002,39.163119563983386],[-107.07360538537627,39.16356068454107],[-107.07349472371304,39.163731508557966],[-107.0733981790745,39.16389082733833],[-107.07319980590695,39.16402944436459],[-107.07320509159409,39.16420946729904],[-107.07316636252722,39.16436775766314],[-107.07307014667211,39.16453832410612],[-107.07295394599683,39.16501319608874],[-107.07277729229621,39.16539908798248],[-107.07252737200102,39.16575250699896],[-107.07242917176742,39.16585557049537],[-107.07182122432246,39.166327925567636],[-107.07145237067694,39.166570887328284],[-107.07115708905314,39.16685757073493],[-107.07096099041989,39.16707381684327],[-107.07086641758342,39.16730063816003],[-107.07083065205867,39.16756019055721],[-107.07068089930756,39.1678780554476],[-107.0705032278157,39.168230184701905],[-107.07036925397256,39.168592800118745],[-107.070179109373,39.169012688462814],[-107.07008453204494,39.16923951884868],[-107.06994923318675,39.169557124035805],[-107.06977287143859,39.16995426152323],[-107.06955448200988,39.17039716736685],[-107.0694030691721,39.17065877465956],[-107.068937952959,39.17107229225383],[-107.06875465711519,39.171233148837246],[-107.06869129085337,39.17153822257842],[-107.06872963364462,39.17185949310628],[-107.0686594024574,39.17242360690622],[-107.06856778328157,39.172751687108125],[-107.06844494585299,39.173001526030895],[-107.06843872591796,39.17328306879616],[-107.06853994628754,39.17352892517032],[-107.06878075586913,39.173603449006144],[-107.0689713127954,39.173690127122526],[-107.06906199592672,39.17382360278635],[-107.06924172006897,39.174034295957135],[-107.06951181113554,39.17436720443496],[-107.06979437620818,39.1746323548449],[-107.069987909253,39.1748202944065],[-107.07002176046784,39.17498854785219],[-107.07009832567613,39.1751335344817],[-107.07030498849714,39.17527619974643],[-107.07049522292822,39.175351620071815],[-107.07071700080219,39.17551654073064],[-107.07111885585634,39.17590339658884],[-107.07134096520865,39.17607955415822],[-107.0716047995093,39.17619869447819],[-107.07172307888612,39.17628664655523],[-107.07178844479776,39.176469068473985],[-107.07182030175268,39.176641769905444],[-107.07190279494354,39.17698927384425],[-107.07192386582685,39.17721404718931],[-107.07201853208812,39.17748253221366],[-107.07213360088612,39.17795328903373],[-107.0722020013068,39.1783122959184],[-107.0722546282094,39.17862656148928],[-107.0722205039067,39.17894237016658],[-107.07219621795299,39.17910040245007],[-107.07202605008872,39.179215991138705],[-107.0718312638941,39.17947838174237],[-107.07140649910525,39.17978988457578],[-107.07118147382154,39.18000777119221],[-107.07095347511422,39.18012439524129],[-107.07046593246007,39.180268148507274],[-107.07019390552405,39.18036303729776],[-107.06983645599101,39.180504483109196],[-107.0693646778718,39.180692973792006],[-107.06908017782806,39.18085562928095],[-107.06818459521902,39.1813893611116],[-107.067916517277,39.18161926902815],[-107.067690476897,39.181803397032716],[-107.06750617583836,39.18193050195035],[-107.06739349386407,39.18203381748113],[-107.06720197843538,39.182408703272884],[-107.06706631486118,39.18271505013419],[-107.06703086015355,39.1829858586369],[-107.06704272869507,39.18339090207262],[-107.06691985623222,39.18364073870263],[-107.06682789839151,39.1839575713991],[-107.06673395078246,39.18420689284127],[-107.06640247244263,39.18474186161123],[-107.06626909777577,39.185126976806956],[-107.06619587160539,39.1855898164815],[-107.06617552386588,39.18588286298242],[-107.0659426014925,39.18632602916602],[-107.06591763910738,39.18646155505528],[-107.066213045597,39.186670200899336],[-107.06633134833001,39.186758155194234],[-107.06651472861549,39.187092619471656],[-107.06670992534019,39.18733681012085],[-107.06689562687237,39.18775003188932],[-107.06714474766696,39.188353497533484],[-107.067234099495,39.18898263931619],[-107.06721121311651,39.189140321789964],[-107.06699405887129,39.18962823127244],[-107.06689223483384,39.19010284052879],[-107.06672796800267,39.19042095650751],[-107.06662714199351,39.19092931664475],[-107.066606794254,39.191222362465815],[-107.066588097618,39.19157166718259],[-107.0664083833572,39.19185628669719],[-107.06620533984848,39.19233269107944],[-107.06601346509369,39.1926963170288],[-107.0658340751247,39.19299218489468],[-107.06586991520957,39.19322794202508],[-107.06590674523792,39.193497467289625],[-107.06579963730998,39.19379205354807],[-107.0655582698746,39.19403753744025],[-107.06522654629468,39.19398233195739],[-107.06483483860998,39.193944246797685],[-107.0638982874341,39.19407342672454],[-107.06323613654325,39.194186465666704],[-107.06276227523088,39.19430743624411],[-107.0620084359939,39.19474855748667],[-107.06145307053579,39.195051073714176],[-107.06112479019836,39.19520322385771],[-107.06068049783188,39.19534618047554],[-107.06016389377997,39.19549040317063],[-107.05942021987876,39.195784980377674],[-107.05853424475171,39.1961608753883],[-107.05754703039042,39.196538545036226],[-107.0565289265598,39.19684921204045],[-107.0560688454039,39.19694739989635],[-107.05562157781719,39.196989063156686],[-107.05537773372659,39.1970609152709],[-107.05528141905677,39.197231468546114],[-107.05510459826951,39.19761733747682],[-107.05499710855754,39.1979006571287],[-107.05487550451585,39.19819548946828],[-107.05451855983601,39.19885470618337],[-107.05431278275388,39.19924107299752],[-107.05408601743343,39.19940267405594],[-107.05356970982558,39.199558128444636],[-107.05323032541294,39.199672598892526],[-107.05254826875368,39.199756250041546],[-107.05214435925248,39.19979713752134],[-107.05158203634251,39.19986333057905],[-107.05083009614405,39.19987657405609],[-107.05010902655032,39.199871898045245],[-107.0492860960882,39.200042767507455],[-107.04718625267054,39.20084730284991],[-107.04642473283789,39.201211116547164],[-107.04579278151026,39.201606023733895],[-107.04509265973061,39.20186861337927],[-107.04439687411889,39.20228132923858],[-107.04362500928742,39.20302910981468],[-107.04292420209326,39.204009255805616],[-107.04268920101829,39.20478098322217],[-107.0424560962869,39.20561943274341],[-107.0424821923459,39.20652006980364],[-107.04230666064106,39.20712388238279],[-107.04227200184079,39.20740817578202],[-107.04203956904922,39.20752906581981],[-107.041271656805,39.20767601645558],[-107.04046377941212,39.20792379270551],[-107.03959785737715,39.20838951775318],[-107.03814418471976,39.209299379572585],[-107.03695255871558,39.210371520264886],[-107.03662013265313,39.21074444936499],[-107.03639249686519,39.211032107358925],[-107.03605116670163,39.211839063596514],[-107.03578739168981,39.21236096647659],[-107.03533017436301,39.21286957503568],[-107.03477104406556,39.21356351162463],[-107.03437861952526,39.214087669271876],[-107.0342473127802,39.2147407554335],[-107.03398110872382,39.21517927619845],[-107.03365347068183,39.21571898687684],[-107.03326871775405,39.21650999653264],[-107.03291817177401,39.21700003841672],[-107.03252138770964,39.21737407997215],[-107.03195065028041,39.21766772607095],[-107.031618668884,39.218057330035464],[-107.03135002141008,39.21841242813891],[-107.03098378276032,39.21910299093743],[-107.0305688877615,39.21959414633794],[-107.03021543842645,39.2199841119432],[-107.03001062882988,39.22032142730919],[-107.02977302803049,39.221009742245954],[-107.0294829296859,39.22136522766494],[-107.02907600364198,39.22138900698583],[-107.0286066743302,39.22148061530211],[-107.02831176640558,39.22166931132671],[-107.02823225472316,39.22188762552625],[-107.02823048953361,39.22257183100443],[-107.02828873809328,39.223104804761434],[-107.02816727868036,39.2233572225911],[-107.0278670796787,39.223362451680934],[-107.02765505211882,39.22344957505242],[-107.0274687945295,39.22368644362941],[-107.02734685092462,39.2239221840372],[-107.02736028882296,39.22438918434356],[-107.02747914132493,39.22477686442377],[-107.02742168867262,39.22483891491696],[-107.02735442372247,39.224916668980114],[-107.02702146855229,39.22512068425948],[-107.02657328109075,39.225370733674914],[-107.02603815377769,39.225413418347],[-107.02563599958455,39.22560397226604],[-107.02525864068987,39.22591090879801],[-107.02496658401796,39.22619966330422],[-107.02465213144771,39.226455442945685],[-107.02429140486053,39.22659521423568],[-107.0239378854569,39.22698515347362],[-107.02377255861369,39.22720496814702],[-107.0236277286303,39.22739104204306],[-107.02341759561737,39.22754486250754],[-107.02333756021713,39.22774650627892],[-107.02334426973398,39.227980015321876],[-107.0233976961372,39.22834619496098],[-107.02325286166224,39.2285322686148],[-107.02310610030102,39.22865162409646],[-107.02244851015683,39.2289133590001],[-107.02226029603683,39.22908349882861],[-107.02213688727973,39.229269200332986],[-107.02203685358465,39.22952125015556],[-107.02185485760303,39.22990820325698],[-107.02171736685553,39.230351139041545],[-107.02171077591629,39.23086854418447],[-107.02174800838986,39.231418572435466],[-107.02175902083694,39.231802183444714],[-107.02175099528819,39.23226956481779],[-107.02154371801952,39.23252346727552],[-107.0213783839898,39.23274326947271],[-107.02098096032495,39.23310059782773],[-107.02098526864506,39.233250708217625],[-107.02131461258779,39.233511978560855],[-107.02171070405107,39.23385553294506],[-107.02224648264271,39.23458045906529],[-107.02240667291913,39.23492810716548],[-107.02242247877656,39.235478496718834],[-107.02226814821073,39.236081919714685],[-107.02208081084643,39.23742911908895],[-107.02104224249531,39.23747820867058],[-107.01971105782185,39.237451248855294],[-107.01882981142647,39.23739978805798],[-107.01809391244403,39.23717892825705],[-107.0175753554547,39.23705441626359],[-107.01660306570356,39.23682095759355],[-107.01563269205893,39.23665420271421],[-107.01466566284209,39.23660418507915],[-107.0138897528969,39.23648410976851],[-107.0131553073886,39.23631326218008],[-107.01251332187923,39.23637442021933],[-107.01184322988124,39.23620244240799],[-107.01035910164077,39.23607789110901],[-107.00997209843322,39.23605120211257],[-107.0096799348618,39.23633992811593],[-107.00943351799621,39.23672799374195],[-107.00920711649347,39.23706562592832],[-107.00860702391739,39.23784358453275],[-107.00799789518784,39.2383046477792],[-107.00740734002513,39.23866525337339],[-107.00632348670221,39.239034366228914],[-107.00500131752095,39.2393241402857],[-107.00416578728867,39.23937189825939],[-107.00270731672937,39.239396995499206],[-107.00192274792315,39.23972753488288],[-107.00154331481849,39.23996768393687],[-107.00131165996797,39.24012184349177],[-107.00123344635112,39.240390186229874],[-107.00119860968442,39.24067446111361],[-107.00107986947185,39.24102693318012],[-107.00087534643784,39.241380870083404],[-107.00058311369612,39.241669583197464],[-107.00003255422479,39.24192934794101],[-106.999225551791,39.24222688268914],[-106.99839234729698,39.242358000451816],[-106.99801810465804,39.24278159732647],[-106.99764763135003,39.24333863056888],[-106.99749402931792,39.24397537023534],[-106.99746721281007,39.24454319200271],[-106.99749624456342,39.24480969439713],[-106.99761200775912,39.245108069156714],[-106.99732022956495,39.245413446897025],[-106.99704800589788,39.245651732901926],[-106.99694974008727,39.245970475935195],[-106.9967499026658,39.2464911977039],[-106.99665448541293,39.246910006996714],[-106.99652956119797,39.24704564904351],[-106.99637941498474,39.24704822513926],[-106.99618635804704,39.247051535175245],[-106.99577879419925,39.24705852186904],[-106.99535026367275,39.24708255405887],[-106.99503228072342,39.247221502321516],[-106.99448118585619,39.24746456146352],[-106.99410026514143,39.24765464505495],[-106.99384710911458,39.24780916616097],[-106.99355247068452,39.24801445543659],[-106.99349662332163,39.248315783575784],[-106.99311658385417,39.24839842301787],[-106.99301316979866,39.248674483071746],[-106.99291440811801,39.24897654438217],[-106.99277607475078,39.249396085966595],[-106.99269827795223,39.24968110278607],[-106.99258139365905,39.250100277723],[-106.99244065909505,39.25043642225958],[-106.99244774320938,39.25068661450234],[-106.9924347904013,39.2509871979565],[-106.99225494498646,39.25145752552875],[-106.99219038576194,39.252209541814224],[-106.99207537086285,39.252695429210306],[-106.99189787544083,39.2532491324045],[-106.99187527203163,39.25396707383938],[-106.9921096326078,39.25466392282394],[-106.99212521298807,39.25521432238641],[-106.9919448815847,39.255667964253526],[-106.99142743491305,39.25634429394477],[-106.9907970412641,39.256822319055104],[-106.99039696756917,39.25709613957176],[-106.9902133294672,39.257433040049264],[-106.99015886730648,39.25778439218989],[-106.98983306272596,39.25840738014156],[-106.98966802873355,39.25864381770443],[-106.98950158079286,39.25883022207899],[-106.98911966833802,39.2589869311342],[-106.98891311511149,39.25927413683844],[-106.98852010486964,39.259798153417],[-106.98827160570923,39.26011945297739],[-106.98815278195333,39.26047190522175],[-106.98800730787791,39.26064126045202],[-106.98755036902887,39.26118305032398],[-106.98736860211763,39.26158664123042],[-106.98661599087767,39.262300346386105],[-106.98615480479393,39.26269201864118],[-106.98515210078223,39.26319259158787],[-106.98460126822307,39.263169060128156],[-106.98382792745957,39.26314886019326],[-106.98284379162479,39.263265763506205],[-106.98170710838001,39.263301806585865],[-106.98112781090444,39.26331166692652],[-106.98065155827678,39.26316958454881],[-106.9804332425099,39.263039789625005],[-106.98017811288439,39.26312758011228],[-106.97958628840216,39.263454694221444],[-106.97901448377435,39.263731414158435],[-106.97871973574985,39.2639366700334],[-106.97864095170281,39.26418831153186],[-106.97858550049695,39.26450632140167],[-106.97848619084397,39.26479167462669],[-106.97825533010416,39.26497915806617],[-106.97796010507425,39.2651677294589],[-106.97770685202936,39.26532221962189],[-106.97750072550257,39.26562608217924],[-106.97724887562615,39.26583060571698],[-106.97688787056123,39.265970235965696],[-106.97663834821971,39.266258157925236],[-106.97638518680296,39.26665341136456],[-106.97600824562491,39.26675277363345],[-106.97539114614386,39.26694680812302],[-106.97439297413275,39.2673308570257],[-106.97405294472972,39.26745343679017],[-106.97366998843253,39.267576734765285],[-106.97328985104869,39.26780011034026],[-106.97325208767077,39.26798430728515],[-106.97321618111056,39.26823522835141],[-106.97331278054632,39.268617393831725],[-106.9736024899204,39.2689962843921],[-106.97367153892472,39.26916198455975],[-106.97341872964756,39.269333134631765],[-106.97286597918524,39.26952606176737],[-106.97206320961305,39.269990220118125],[-106.97185470704235,39.27021068519954],[-106.97167141479179,39.270564218190486],[-106.97131363647537,39.270820582286106],[-106.97086629792177,39.27094496757024],[-106.97033357360209,39.271087477180586],[-106.96989417346063,39.27149540203598],[-106.96956251096617,39.271918197706846],[-106.96923038853426,39.27232430613827],[-106.9691552884782,39.272709379137915],[-106.96903401501653,39.27297841916562],[-106.9686962718259,39.27318437606261],[-106.96812810088343,39.273594474399054],[-106.96757529382725,39.273787377285096],[-106.96727673335269,39.27385916818042],[-106.96721841472444,39.274077093274634],[-106.9671843640836,39.27439471682856],[-106.96695765356039,39.27473229215356],[-106.96683309136647,39.27488458184275],[-106.9664505482943,39.27502453479821],[-106.96604795662162,39.275214894151645],[-106.96577504753999,39.275436442216616],[-106.96562995435026,39.27562244241369],[-106.9656164221288,39.27590635472589],[-106.96558422830566,39.276290700830145],[-106.9653738240015,39.27644443909871],[-106.96486624352661,39.27671999791399],[-106.96448695145746,39.27697671151648],[-106.96436470871359,39.2772123917566],[-106.96418462165197,39.2776826643794],[-106.9641967363319,39.278116319856025],[-106.96401523891525,39.27853656669657],[-106.96399421743928,39.27932121352008],[-106.96402546084487,39.279671105562095],[-106.96428951523275,39.279900276587334],[-106.96440520296998,39.28019868489134],[-106.96456475454423,39.28052973494017],[-106.96494637145334,39.281124026393094],[-106.96506440559008,39.281505835795194],[-106.96495101753996,39.28205843182252],[-106.9649565960779,39.28302617864913],[-106.96504009268693,39.283708941621036],[-106.96515813490852,39.28409075918326],[-106.96551085211662,39.28441852915201],[-106.96542967136439,39.28458677034573],[-106.96563309396218,39.28495044965108],[-106.96585518265321,39.28521369810912],[-106.96607866283466,39.2855269714611],[-106.96615518761877,39.28595953822051],[-106.96614772441539,39.28646027800558],[-106.96592329471471,39.2868812535052],[-106.9658299660449,39.287383435659095],[-106.96571471938044,39.287869301025005],[-106.96549494744451,39.28845705657374],[-106.96524857818964,39.288861714762696],[-106.96495926946417,39.28926708603497],[-106.96465035860089,39.28973953522003],[-106.96466108268878,39.290123153976786],[-106.96463821607321,39.29084108479607],[-106.96501756114296,39.29135197283471],[-106.96514915175568,39.291449876927224],[-106.96562743457586,39.29165873218397],[-106.96610945348935,39.29200101724452],[-106.96642022296695,39.29236288313077],[-106.96675712713109,39.29289118653012],[-106.9672713515458,39.29361670714561],[-106.96762882263842,39.29411127918997],[-106.96836894729593,39.295233480426965],[-106.96895135024747,39.29609135870022],[-106.96930648572031,39.29650251239846],[-106.9696793620217,39.29677988668282],[-106.9700214117358,39.29690361341888],[-106.97019459165122,39.29753876817667],[-106.97049002329365,39.298117810623886],[-106.97063285003392,39.29861600466667],[-106.97078504889758,39.29944778141471],[-106.97119993940481,39.299691058475744],[-106.97159008222428,39.29981794023828],[-106.97204744507815,39.30004380523673],[-106.9722047400844,39.3002914527175],[-106.9722789723679,39.30064062340205],[-106.97240080637832,39.30115584852141],[-106.97284282690543,39.301598909839605],[-106.97371932480625,39.30221815078049],[-106.97452628232429,39.30265500763047],[-106.97544199078894,39.303140080945205],[-106.97629285256816,39.30360955178744],[-106.97710031044782,39.304063077780825],[-106.97689172882536,39.30428354962588],[-106.97649838800348,39.3048075305798],[-106.97632534912358,39.305528001548716],[-106.97638611745761,39.306161079667376],[-106.97677032690463,39.30683871325036],[-106.97728101734701,39.30743076640656],[-106.97792241715482,39.308087350644584],[-106.97883356307612,39.309326738841584],[-106.97974804623874,39.31040019773652],[-106.98021158770513,39.31077765291577],[-106.9807412254135,39.31120424618483],[-106.98084308089197,39.311314512995956],[-106.98093299326877,39.31145602302039],[-106.98093621911896,39.31157039154668],[-106.98108694923711,39.311691782533785],[-106.98142697594518,39.311562037889544],[-106.98218118708469,39.31132034368724],[-106.98358051076906,39.31088647262171],[-106.98435817063243,39.310606228086556],[-106.9847595316132,39.310475427736016],[-106.98511262970698,39.310374043725375],[-106.98531741504902,39.31023706324433],[-106.98561638605368,39.31009520044843],[-106.98583713176339,39.30989435508859],[-106.98591767201681,39.30969193623999],[-106.98592785891215,39.30928966433886],[-106.98597133108369,39.309043764804414],[-106.98642270666618,39.30924770979588]]]}}]}
