{"type":"FeatureCollection","name":"usgs_09085000_nldi","provenance":{"source":"NLDI basin upstream of an indexed USGS gauge","site":"USGS-09085000","index":{"comid":1324997,"reachcode":"14010004000002","measure":8.925,"request":"https://api.water.usgs.gov/nldi/linked-data/nwissite/USGS-09085000"},"splitCatchment":false,"simplified":true,"requests":["https://api.water.usgs.gov/nldi/linked-data/nwissite/USGS-09085000","https://api.water.usgs.gov/nldi/linked-data/nwissite/USGS-09085000/basin?splitCatchment=false&simplified=true"],"date":"2026-09-06T18:09:41Z","geometry_sha256":"9d02af22607da6bb813bd8c671d5e238ca785c7d50ddf69d1653f97d31809909","geometry_type":"Polygon","area_km2":3767.1,"area_projection":"ESRI:102008","comparison":{"site":"USGS-09085000","name":"ROARING FORK RIVER AT GLENWOOD SPRINGS, CO.","request":"https://api.waterdata.usgs.gov/ogcapi/v0/collections/monitoring-locations/items?id=USGS-09085000&f=json","drainage_area_mi2":1453.0,"drainage_area_km2":3763.3,"contributing_drainage_area_mi2":null,"contributing_drainage_area_km2":null,"polygon_vs_total_pct":0.1}},"features":[{"type":"Feature","properties":{"name":"usgs_09085000_nldi","area_km2":3767.1},"geometry":{"type":"Polygon","coordinates":[[[-107.425674154,39.364870871],[-107.427835705,39.375978448],[-107.424489871,39.378929945],[-107.428109093,39.388012914],[-107.427192383,39.39559847],[-107.422258425,39.395738435],[-107.419568822,39.404378986],[-107.415530438,39.406916661],[-107.408451899,39.406509482],[-107.403162401,39.408147349],[-107.397773727,39.415557242],[-107.398011627,39.419218503],[-107.393720679,39.423264583],[-107.394323761,39.425527397],[-107.386314155,39.428201585],[-107.381648574,39.427820143],[-107.380517226,39.432103884],[-107.38378223,39.440235705],[-107.385403962,39.461895904],[-107.391399358,39.476731092],[-107.394084078,39.479526835],[-107.394450328,39.484076926],[-107.38881382,39.48754016],[-107.385089371,39.494371108],[-107.381263203,39.495391127],[-107.379732515,39.499836722],[-107.379531671,39.510787485],[-107.368678257,39.519791511],[-107.361731497,39.521581411],[-107.365802764,39.52714123],[-107.366009499,39.536511692],[-107.359195272,39.537431899],[-107.356264785,39.543110669],[-107.348390631,39.543255938],[-107.329877032,39.549020426],[-107.320749746,39.541433015],[-107.317623999,39.541622498],[-107.311745912,39.545263619],[-107.300098437,39.542898916],[-107.290378422,39.542785791],[-107.279223701,39.538253613],[-107.277166715,39.539583665],[-107.274818652,39.538802274],[-107.269496964,39.541830588],[-107.258569986,39.54228026],[-107.241280004,39.534137017],[-107.227853121,39.533644156],[-107.22153716,39.534571798],[-107.221093511,39.53726856],[-107.214031264,39.538752713],[-107.210208828,39.541821155],[-107.201122059,39.541512465],[-107.192595353,39.546882041],[-107.188652044,39.54313728],[-107.189347054,39.540569774],[-107.186206805,39.539979102],[-107.181476536,39.540460967],[-107.180604461,39.543468653],[-107.175140876,39.544137207],[-107.174598791,39.542468494],[-107.170946754,39.542177146],[-107.159925487,39.543809051],[-107.146190403,39.541461792],[-107.133424594,39.542753699],[-107.12702063,39.548223301],[-107.127300941,39.552397211],[-107.130420143,39.555421356],[-107.12371972,39.557757445],[-107.111884582,39.555649248],[-107.111105136,39.560476778],[-107.104819104,39.560451091],[-107.091905602,39.563726734],[-107.081015582,39.561714613],[-107.084272096,39.555225618],[-107.073698521,39.551308682],[-107.076307623,39.548493997],[-107.068914219,39.543751609],[-107.067770291,39.538130188],[-107.060812195,39.533856229],[-107.057876295,39.529799527],[-107.057706133,39.52672046],[-107.060453898,39.522080859],[-107.063165,39.520590214],[-107.06438471,39.513601695],[-107.060102415,39.509016312],[-107.054473164,39.510402972],[-107.051754325,39.505434227],[-107.055346176,39.500929258],[-107.052870793,39.501381844],[-107.042972277,39.494212309],[-107.040586625,39.496168476],[-107.034800869,39.493731927],[-107.03010521,39.496398055],[-107.023401786,39.495884667],[-107.01453397,39.4913432],[-107.010665044,39.497469364],[-106.996491688,39.494739349],[-106.989333203,39.494985488],[-106.986255971,39.495676219],[-106.978002999,39.502521846],[-106.972421071,39.503895274],[-106.969995129,39.500734272],[-106.964935057,39.498419111],[-106.966426719,39.494009589],[-106.963647309,39.491004949],[-106.963353386,39.486868607],[-106.953924684,39.484298013],[-106.954047904,39.481679743],[-106.95006458,39.476777723],[-106.934259662,39.471476442],[-106.931390219,39.467371859],[-106.925525863,39.467362924],[-106.918784841,39.463809726],[-106.901507724,39.442044383],[-106.894643469,39.439114668],[-106.884642055,39.44322405],[-106.877021657,39.442004728],[-106.874927502,39.435182212],[-106.860756531,39.433850645],[-106.859317905,39.427924346],[-106.848864153,39.426681511],[-106.842472661,39.421850351],[-106.83280604,39.424379166],[-106.82589581,39.423023526],[-106.819273486,39.428258248],[-106.807967195,39.428836457],[-106.79263555,39.425770203],[-106.787765072,39.419960477],[-106.777860598,39.417709706],[-106.769539376,39.418581374],[-106.764104581,39.423272173],[-106.750468531,39.422027387],[-106.74504532,39.419298088],[-106.738587575,39.423054199],[-106.733706957,39.421142603],[-106.723905713,39.424984453],[-106.717673701,39.42369814],[-106.714082614,39.425655608],[-106.703100793,39.427191815],[-106.700135938,39.429998864],[-106.68628254,39.432585593],[-106.684758621,39.437029913],[-106.686001989,39.439817946],[-106.684336503,39.442843294],[-106.676909168,39.444793378],[-106.676379014,39.450237137],[-106.668000194,39.450681442],[-106.661234969,39.454579333],[-106.656078689,39.453858426],[-106.654504344,39.458061348],[-106.65597934,39.462756494],[-106.64492693,39.465839876],[-106.642350894,39.466005555],[-106.633726535,39.461212445],[-106.618755662,39.456122161],[-106.609513387,39.456669831],[-106.60801869,39.453227167],[-106.604726486,39.450902638],[-106.599348456,39.450893867],[-106.589141686,39.445507987],[-106.5815491,39.445406076],[-106.580415502,39.441840965],[-106.574588785,39.43652964],[-106.56265995,39.432466775],[-106.55727141,39.423301518],[-106.550636619,39.420245355],[-106.546029212,39.416106858],[-106.542469355,39.408053936],[-106.543686483,39.405850698],[-106.542644941,39.402113559],[-106.532574422,39.404197137],[-106.5218728,39.40037216],[-106.52420166,39.394519001],[-106.523782063,39.383224652],[-106.51996928,39.380064035],[-106.516134995,39.368118279],[-106.50784194,39.361311356],[-106.50444741,39.356060413],[-106.506164013,39.355388177],[-106.508250545,39.350621598],[-106.507713879,39.348037918],[-106.502975228,39.343526671],[-106.50165755,39.337549919],[-106.503729725,39.330411228],[-106.502163948,39.325819995],[-106.503935518,39.321179004],[-106.50257612,39.318914281],[-106.50657861,39.313473283],[-106.504284061,39.310339834],[-106.497922145,39.308794902],[-106.492823283,39.305333451],[-106.492940126,39.303707672],[-106.501330584,39.300259783],[-106.503547963,39.295149732],[-106.503098789,39.289247978],[-106.504785926,39.286848595],[-106.498391231,39.27912707],[-106.49401654,39.277890632],[-106.490706419,39.273452221],[-106.483105893,39.272490208],[-106.484226721,39.265809995],[-106.481037098,39.259979986],[-106.488463433,39.24860728],[-106.49780229,39.242431049],[-106.499028055,39.235422956],[-106.489849934,39.228014975],[-106.492083184,39.226032402],[-106.491003082,39.222961471],[-106.494191076,39.218927674],[-106.493091467,39.215409215],[-106.494988161,39.208599006],[-106.493477174,39.198091218],[-106.497668714,39.19344314],[-106.499795252,39.183527825],[-106.504762843,39.178967261],[-106.50772443,39.17841638],[-106.509722798,39.175049875],[-106.508918613,39.165937204],[-106.52142787,39.157478911],[-106.535321037,39.16330067],[-106.538479033,39.157876061],[-106.551650968,39.16164177],[-106.556975688,39.157124071],[-106.56136035,39.155697255],[-106.56271285,39.152888652],[-106.558857962,39.143975933],[-106.55941625,39.139972585],[-106.564711425,39.132787821],[-106.558169155,39.124188584],[-106.558321666,39.120405006],[-106.564732703,39.113565814],[-106.56478037,39.108953709],[-106.563189795,39.106638119],[-106.570418707,39.103891754],[-106.57502166,39.104565467],[-106.586176276,39.09615601],[-106.586597469,39.090221991],[-106.584663758,39.083681384],[-106.577393084,39.079724333],[-106.579688399,39.077751185],[-106.579771909,39.075009703],[-106.577781013,39.072287743],[-106.577640611,39.052500842],[-106.585025893,39.046461508],[-106.597260674,39.04462704],[-106.599689157,39.03429363],[-106.597754304,39.031567238],[-106.593768283,39.03038215],[-106.591318923,39.026034316],[-106.59480838,39.022727515],[-106.595243792,39.017866406],[-106.594079901,39.016619461],[-106.595640989,39.011081152],[-106.594519468,39.002726942],[-106.599216258,38.99786457],[-106.6132968,38.995787468],[-106.614463205,38.99967795],[-106.623562696,39.003669767],[-106.630165676,39.012175718],[-106.637329832,39.01428881],[-106.638248801,39.019291568],[-106.648527469,39.022177744],[-106.64981017,39.027338565],[-106.646775259,39.030169233],[-106.646684125,39.032775889],[-106.655290123,39.044220874],[-106.66478938,39.041786078],[-106.674186176,39.045823977],[-106.685335616,39.045281162],[-106.692884868,39.05498464],[-106.703150654,39.055981409],[-106.707541235,39.053785315],[-106.710354055,39.047546192],[-106.716785354,39.048334971],[-106.723512744,39.044937169],[-106.729544754,39.046697456],[-106.734612509,39.044902437],[-106.739205285,39.046026385],[-106.749399932,39.042542736],[-106.746752092,39.038631073],[-106.744598434,39.026797031],[-106.751370211,39.025497097],[-106.756412888,39.019963377],[-106.761628177,39.019269638],[-106.761548246,39.015835603],[-106.768178767,39.010199889],[-106.768794965,39.007372355],[-106.776233027,39.005186768],[-106.777078449,39.002026646],[-106.782211285,38.999153447],[-106.783840916,38.995741737],[-106.782125566,38.990395153],[-106.78405711,38.986833967],[-106.787682557,38.984266647],[-106.796230836,38.984394631],[-106.800238212,38.982078712],[-106.799494532,38.979449733],[-106.80353018,38.978164601],[-106.811200098,38.978819742],[-106.816640469,38.98118289],[-106.827356231,38.977550377],[-106.834163686,38.980725405],[-106.835741853,38.98337478],[-106.845892815,38.98614448],[-106.856231116,38.998725392],[-106.861360345,39.009590328],[-106.867556915,39.006949288],[-106.876486255,39.007182673],[-106.878381644,39.004679472],[-106.876350296,38.999831805],[-106.878083018,38.994379253],[-106.884787003,38.990433806],[-106.890754257,38.991183647],[-106.892845352,38.989576433],[-106.900431054,38.992375423],[-106.908419553,38.99251358],[-106.907738112,38.994826019],[-106.910355674,39.00069512],[-106.91779334,38.999297388],[-106.928890114,39.004830558],[-106.934670753,39.005551782],[-106.945576292,39.014825464],[-106.954532616,39.01685079],[-106.959018594,39.015251178],[-106.963569143,39.016994867],[-106.965265612,39.022639741],[-106.963601281,39.028887927],[-106.967380673,39.030946242],[-106.972111457,39.028661375],[-106.989091886,39.03127939],[-106.996024925,39.034060752],[-107.010926661,39.027318892],[-107.012313454,39.023450178],[-107.016106865,39.019815411],[-107.016529611,39.016067265],[-107.021279211,39.013875472],[-107.025077126,39.016409395],[-107.032506661,39.014964406],[-107.041065165,39.017650802],[-107.047317356,39.014700557],[-107.047905544,39.005764626],[-107.044540059,38.997655804],[-107.046491487,38.99220339],[-107.046104301,38.988366356],[-107.04917103,38.985397367],[-107.065761794,38.988418032],[-107.066447703,38.993249441],[-107.077101029,38.996620393],[-107.078507615,39.000017662],[-107.084844058,39.000205288],[-107.092249835,39.009295198],[-107.095437071,39.01084294],[-107.097889886,38.998032195],[-107.102304352,38.996249221],[-107.10365533,38.991831662],[-107.117618253,38.994507046],[-107.124998513,38.990989831],[-107.129406794,38.993951135],[-107.134665049,38.992161449],[-107.14359103,38.996158463],[-107.14748702,38.993738327],[-107.153620799,38.993796461],[-107.159972889,38.997662551],[-107.161418686,39.001180973],[-107.166164214,39.004628687],[-107.166216451,39.007081223],[-107.172409223,39.015741039],[-107.171592832,39.019783957],[-107.172958994,39.023795948],[-107.178403673,39.030278669],[-107.193537647,39.03358386],[-107.203840586,39.030657464],[-107.212990483,39.031820921],[-107.222708796,39.02801304],[-107.224427914,39.024423478],[-107.231936906,39.019863536],[-107.243825362,39.023878672],[-107.250545312,39.028678152],[-107.257188519,39.026333879],[-107.261924409,39.027102817],[-107.265539499,39.029590006],[-107.276868185,39.030322804],[-107.280958501,39.034026651],[-107.281724457,39.036618645],[-107.277216345,39.040779573],[-107.277549383,39.043932295],[-107.280426793,39.047628938],[-107.27834589,39.053370003],[-107.28058302,39.057204057],[-107.287005055,39.062130356],[-107.284956285,39.067388466],[-107.286599621,39.070138402],[-107.28254694,39.07454739],[-107.282500773,39.080492484],[-107.276865413,39.090132457],[-107.281862648,39.095222852],[-107.278927967,39.097794338],[-107.281894628,39.099947806],[-107.283747064,39.104430947],[-107.283302371,39.113312335],[-107.288060284,39.114597946],[-107.281939098,39.119354387],[-107.282558152,39.1235857],[-107.284893158,39.125207119],[-107.283950067,39.128724787],[-107.286115667,39.136311043],[-107.294076861,39.145580024],[-107.296186004,39.15053785],[-107.295651063,39.153940485],[-107.299231659,39.156740167],[-107.30425044,39.155742922],[-107.307795046,39.157393674],[-107.318805843,39.165590125],[-107.332807306,39.16616711],[-107.336995755,39.169048221],[-107.344776149,39.169144447],[-107.353531065,39.173194704],[-107.359297436,39.184364776],[-107.363202576,39.18600957],[-107.367499144,39.192400514],[-107.376842199,39.199009411],[-107.377349382,39.204250582],[-107.380912212,39.210312699],[-107.377872036,39.215244647],[-107.376613816,39.223378709],[-107.379404022,39.2308894],[-107.37568454,39.237165259],[-107.371645919,39.238932302],[-107.376191324,39.245878722],[-107.384203198,39.247877155],[-107.38633084,39.250461008],[-107.390460509,39.250685087],[-107.394200334,39.257496587],[-107.391174787,39.260569697],[-107.390858446,39.264398561],[-107.378922858,39.269197343],[-107.377738549,39.274154695],[-107.392246381,39.279482948],[-107.396930507,39.283703377],[-107.395970318,39.290037978],[-107.397705194,39.291943846],[-107.397205197,39.294452116],[-107.405934285,39.292815619],[-107.408619732,39.294013624],[-107.41258891,39.292063425],[-107.422021289,39.297006781],[-107.434813306,39.298639254],[-107.439569434,39.303105636],[-107.4372973,39.305903991],[-107.4389394,39.309043949],[-107.445172466,39.308708156],[-107.446645746,39.306457309],[-107.451679224,39.304633013],[-107.456641252,39.307159783],[-107.457263818,39.309434206],[-107.464537933,39.31455835],[-107.463151581,39.316510715],[-107.465833574,39.32246984],[-107.462315637,39.326843648],[-107.451115158,39.330030611],[-107.442751547,39.339164891],[-107.438558163,39.341047048],[-107.436255797,39.346894064],[-107.430842522,39.347782397],[-107.429261014,39.359547326],[-107.425674154,39.364870871]]]}}]}
